{"type":"FeatureCollection", "features": [
{"type":"Feature","geometry":{"type":"MultiPolygon","coordinates":[[[[94.819,15.84],[94.842,15.872],[94.814,15.94],[94.774,15.889],[94.772,15.865],[94.747,15.837],[94.741,15.8],[94.809,15.789],[94.819,15.84]]],[[[95.002,15.844],[94.984,15.85],[94.983,15.781],[94.996,15.775],[95.034,15.806],[95.042,15.834],[95.002,15.844]]],[[[95.249,15.85],[95.275,15.877],[95.342,15.986],[95.345,16.042],[95.323,16.087],[95.272,16.031],[95.274,15.957],[95.233,15.878],[95.249,15.85]]],[[[94.331,16.017],[94.276,15.993],[94.323,15.977],[94.348,16.014],[94.331,16.017]]],[[[94.816,15.986],[94.85,16.011],[94.856,16.047],[94.835,16.053],[94.809,16.003],[94.816,15.986]]],[[[95.124,16.145],[95.134,16.169],[95.116,16.211],[95.147,16.239],[95.132,16.26],[95.142,16.297],[95.107,16.292],[95.095,16.265],[95.083,16.26],[95.08,16.25],[95.07,16.244],[95.063,16.225],[95.053,16.217],[95.047,16.188],[95.016,16.167],[95.012,16.136],[94.953,16.139],[94.932,16.088],[94.898,16.076],[94.916,16.047],[94.916,16.025],[94.893,16.002],[94.871,16.003],[94.837,15.97],[94.82,15.941],[94.848,15.893],[94.837,15.848],[94.847,15.811],[94.835,15.79],[94.86,15.757],[94.95,15.743],[94.986,15.766],[94.979,15.784],[94.978,15.841],[94.982,15.851],[94.988,15.853],[95.007,15.845],[95.052,15.853],[95.068,15.977],[95.052,16.023],[95.073,16.082],[95.112,16.114],[95.124,16.145]]],[[[94.643,16.109],[94.668,16.203],[94.651,16.23],[94.613,16.229],[94.57,16.189],[94.541,16.144],[94.519,16.128],[94.502,16.09],[94.46,16.031],[94.445,16.019],[94.383,16.002],[94.377,15.981],[94.4,15.877],[94.432,15.882],[94.445,15.92],[94.47,15.931],[94.513,15.988],[94.576,16.002],[94.602,16.056],[94.643,16.109]]],[[[95.183,16.112],[95.17,16.118],[95.114,16.085],[95.09,16.034],[95.12,16.039],[95.181,16.034],[95.178,16.088],[95.183,16.112]]],[[[94.559,17.476],[94.557,17.408],[94.57,17.393],[94.562,17.331],[94.567,17.315],[94.508,17.302],[94.492,17.264],[94.497,17.218],[94.534,17.185],[94.496,17.161],[94.488,17.181],[94.443,17.183],[94.456,17.143],[94.479,17.141],[94.489,17.117],[94.449,17.055],[94.463,17.009],[94.45,16.969],[94.434,16.955],[94.436,16.926],[94.375,16.872],[94.388,16.856],[94.401,16.794],[94.357,16.732],[94.352,16.69],[94.362,16.668],[94.351,16.632],[94.326,16.599],[94.347,16.572],[94.33,16.542],[94.298,16.526],[94.283,16.545],[94.255,16.537],[94.27,16.504],[94.264,16.448],[94.227,16.315],[94.241,16.28],[94.223,16.26],[94.227,16.237],[94.21,16.201],[94.218,16.159],[94.208,16.126],[94.202,16.019],[94.246,15.952],[94.277,15.998],[94.311,16.009],[94.327,16.02],[94.336,16.017],[94.364,16.051],[94.413,16.062],[94.507,16.177],[94.522,16.215],[94.508,16.295],[94.532,16.289],[94.564,16.26],[94.604,16.285],[94.599,16.317],[94.635,16.389],[94.644,16.397],[94.653,16.396],[94.677,16.385],[94.68,16.437],[94.664,16.531],[94.69,16.558],[94.689,16.595],[94.7,16.625],[94.729,16.631],[94.757,16.627],[94.772,16.608],[94.769,16.579],[94.742,16.575],[94.724,16.502],[94.692,16.487],[94.708,16.435],[94.709,16.374],[94.689,16.347],[94.683,16.303],[94.66,16.263],[94.682,16.191],[94.675,16.128],[94.652,16.077],[94.586,15.987],[94.552,15.965],[94.578,15.934],[94.636,15.963],[94.687,15.997],[94.696,16.036],[94.729,16.031],[94.671,15.961],[94.612,15.935],[94.606,15.914],[94.644,15.864],[94.68,15.843],[94.719,15.855],[94.768,15.935],[94.807,15.973],[94.798,15.988],[94.846,16.085],[94.836,16.111],[94.869,16.19],[94.882,16.186],[94.855,16.114],[94.875,16.059],[94.878,16.013],[94.913,16.033],[94.894,16.071],[94.902,16.088],[94.925,16.092],[94.95,16.145],[95.011,16.142],[95.008,16.167],[95.04,16.186],[95.051,16.223],[95.062,16.229],[95.066,16.243],[95.079,16.255],[95.08,16.262],[95.089,16.265],[95.106,16.293],[95.115,16.325],[95.146,16.296],[95.137,16.27],[95.15,16.237],[95.125,16.211],[95.142,16.171],[95.131,16.122],[95.164,16.124],[95.191,16.115],[95.183,16.087],[95.188,16.047],[95.186,16.031],[95.175,16.024],[95.123,16.035],[95.128,15.982],[95.11,15.897],[95.114,15.804],[95.174,15.772],[95.225,15.799],[95.213,15.86],[95.236,15.94],[95.266,15.99],[95.266,16.034],[95.303,16.086],[95.323,16.094],[95.3,16.147],[95.324,16.197],[95.374,16.218],[95.369,16.169],[95.33,16.107],[95.356,16.064],[95.361,16],[95.354,15.957],[95.336,15.924],[95.305,15.896],[95.278,15.848],[95.268,15.803],[95.288,15.755],[95.286,15.717],[95.323,15.706],[95.405,15.716],[95.459,15.738],[95.489,15.759],[95.512,15.797],[95.645,15.926],[95.71,16.036],[95.715,16.073],[95.747,16.128],[95.775,16.134],[95.84,16.187],[95.868,16.23],[95.888,16.244],[95.904,16.303],[95.905,16.338],[95.929,16.387],[95.92,16.399],[95.882,16.413],[95.862,16.43],[95.864,16.455],[95.819,16.458],[95.829,16.496],[95.881,16.539],[95.876,16.568],[95.84,16.57],[95.824,16.615],[95.836,16.644],[95.825,16.674],[95.843,16.713],[95.873,16.725],[95.876,16.756],[95.866,16.824],[95.837,16.87],[95.849,16.889],[95.839,16.928],[95.867,16.98],[95.866,17.003],[95.821,17.04],[95.836,17.063],[95.803,17.085],[95.81,17.111],[95.784,17.151],[95.784,17.171],[95.747,17.201],[95.71,17.202],[95.69,17.232],[95.705,17.258],[95.708,17.299],[95.687,17.347],[95.662,17.363],[95.643,17.344],[95.618,17.348],[95.626,17.387],[95.675,17.395],[95.69,17.408],[95.69,17.442],[95.736,17.478],[95.677,17.551],[95.678,17.587],[95.655,17.611],[95.617,17.627],[95.582,17.61],[95.549,17.641],[95.504,17.649],[95.432,17.721],[95.432,17.74],[95.486,17.781],[95.475,17.83],[95.487,17.871],[95.457,17.912],[95.466,17.989],[95.452,18.032],[95.396,18.162],[95.417,18.202],[95.412,18.223],[95.347,18.255],[95.335,18.286],[95.258,18.341],[95.262,18.374],[95.194,18.416],[95.191,18.473],[95.117,18.51],[95.1,18.485],[95.112,18.436],[95.097,18.428],[95.078,18.379],[95.039,18.369],[95.007,18.382],[94.99,18.413],[94.969,18.415],[94.94,18.453],[94.926,18.426],[94.865,18.409],[94.823,18.36],[94.853,18.314],[94.884,18.295],[94.886,18.254],[94.871,18.228],[94.902,18.196],[94.893,18.173],[94.852,18.142],[94.881,18.08],[94.871,18.053],[94.84,18.03],[94.817,17.994],[94.847,17.923],[94.882,17.898],[94.873,17.869],[94.887,17.849],[94.871,17.813],[94.871,17.72],[94.844,17.709],[94.833,17.683],[94.802,17.678],[94.788,17.655],[94.79,17.553],[94.804,17.516],[94.806,17.479],[94.79,17.446],[94.764,17.418],[94.756,17.38],[94.739,17.378],[94.729,17.34],[94.705,17.343],[94.697,17.37],[94.672,17.372],[94.663,17.399],[94.582,17.444],[94.559,17.476]]],[[[95.325,16.12],[95.363,16.166],[95.365,16.21],[95.317,16.18],[95.304,16.153],[95.325,16.12]]],[[[94.548,16.204],[94.56,16.251],[94.515,16.269],[94.53,16.2],[94.548,16.204]]],[[[94.667,16.339],[94.612,16.329],[94.614,16.3],[94.641,16.286],[94.667,16.339]]],[[[95.886,16.197],[95.944,16.263],[95.951,16.342],[95.931,16.379],[95.906,16.335],[95.907,16.304],[95.886,16.197]]],[[[95.931,16.214],[95.997,16.233],[96.018,16.248],[96.076,16.314],[96.07,16.344],[96.012,16.383],[95.992,16.388],[95.965,16.35],[95.968,16.307],[95.951,16.25],[95.931,16.214]]],[[[94.737,16.628],[94.699,16.615],[94.698,16.559],[94.674,16.526],[94.688,16.492],[94.723,16.511],[94.737,16.574],[94.765,16.585],[94.77,16.606],[94.737,16.628]]],[[[94.649,16.341],[94.661,16.373],[94.671,16.383],[94.645,16.395],[94.638,16.39],[94.634,16.371],[94.617,16.341],[94.649,16.341]]],[[[95.962,16.349],[95.991,16.392],[95.946,16.406],[95.946,16.375],[95.962,16.349]]]]},"properties":{"shapeName":"Ayeyarwady","shapeISO":"MM-07","shapeID":"20573499B9779674920937","shapeGroup":"MMR","shapeType":"ADM1"}},
{"type":"Feature","geometry":{"type":"Polygon","coordinates":[[[93.863,20.65],[93.886,20.642],[93.98,20.669],[93.99,20.682],[94.045,20.688],[94.084,20.75],[94.051,20.793],[94.039,20.828],[94.058,20.858],[94.031,20.887],[94.004,20.96],[94.044,21.014],[94.077,21.035],[94.053,21.067],[94.085,21.073],[94.112,21.112],[94.12,21.168],[94.094,21.213],[94.094,21.279],[94.024,21.281],[94.006,21.3],[94.055,21.336],[94.048,21.362],[94.065,21.395],[94.089,21.465],[94.077,21.481],[94.097,21.523],[94.096,21.557],[94.118,21.573],[94.103,21.635],[94.042,21.672],[94.006,21.72],[93.981,21.924],[94.018,21.996],[94.006,22.081],[94.042,22.156],[94.038,22.254],[94.018,22.366],[94.058,22.437],[94.048,22.451],[94.017,22.568],[94.017,22.595],[94.049,22.606],[94.008,22.737],[94.008,22.771],[93.987,22.83],[94.017,22.853],[94.011,22.905],[93.99,22.947],[94.024,22.948],[94.001,22.983],[94.005,23.057],[93.977,23.09],[93.977,23.125],[93.946,23.18],[93.955,23.22],[93.999,23.255],[94.01,23.29],[94.003,23.371],[94.03,23.385],[94.037,23.432],[94.027,23.525],[94.016,23.541],[94.04,23.573],[94.076,23.548],[94.118,23.557],[94.128,23.665],[94.15,23.691],[94.137,23.721],[94.153,23.739],[94.137,23.774],[94.142,23.835],[94.118,23.84],[94.098,23.886],[94.052,23.887],[94.043,23.91],[93.957,23.932],[93.932,23.951],[93.902,23.95],[93.861,23.933],[93.821,23.926],[93.777,23.967],[93.761,24.003],[93.72,24],[93.62,24.01],[93.589,23.962],[93.554,23.977],[93.521,23.948],[93.492,23.952],[93.46,23.979],[93.455,24.015],[93.435,24.02],[93.409,24.078],[93.344,24.1],[93.336,24.062],[93.333,23.986],[93.365,23.933],[93.393,23.92],[93.387,23.874],[93.392,23.817],[93.404,23.806],[93.392,23.756],[93.409,23.71],[93.436,23.677],[93.417,23.641],[93.428,23.595],[93.411,23.559],[93.418,23.538],[93.395,23.502],[93.389,23.42],[93.4,23.389],[93.385,23.364],[93.357,23.352],[93.369,23.325],[93.367,23.267],[93.382,23.229],[93.38,23.187],[93.361,23.118],[93.327,23.042],[93.292,23.007],[93.243,23.009],[93.213,23.041],[93.182,23.06],[93.126,23.045],[93.122,23.003],[93.149,22.925],[93.098,22.808],[93.105,22.752],[93.092,22.706],[93.107,22.639],[93.134,22.612],[93.139,22.585],[93.114,22.561],[93.11,22.526],[93.135,22.493],[93.138,22.456],[93.185,22.426],[93.186,22.35],[93.196,22.256],[93.142,22.246],[93.159,22.189],[93.124,22.175],[93.109,22.201],[93.049,22.202],[93.04,22.14],[93.058,22.098],[93.02,22.1],[92.995,22.041],[93.005,21.988],[92.977,21.997],[92.957,22.032],[92.93,22.014],[92.901,21.966],[92.89,22.012],[92.866,22.026],[92.869,22.054],[92.736,22.134],[92.697,22.137],[92.683,22.103],[92.681,22.012],[92.654,22.015],[92.634,21.984],[92.606,21.974],[92.631,21.878],[92.613,21.849],[92.611,21.769],[92.602,21.701],[92.609,21.591],[92.631,21.449],[92.651,21.386],[92.652,21.356],[92.679,21.286],[92.711,21.253],[92.738,21.198],[92.784,21.19],[92.784,21.159],[92.813,21.096],[92.849,21.09],[92.865,21.073],[92.926,21.114],[92.984,21.097],[93.006,21.071],[93.047,21.062],[93.13,21.088],[93.122,21.056],[93.141,20.97],[93.134,20.929],[93.145,20.911],[93.16,20.844],[93.176,20.833],[93.209,20.851],[93.247,20.831],[93.244,20.81],[93.278,20.791],[93.311,20.791],[93.321,20.761],[93.39,20.771],[93.405,20.732],[93.481,20.744],[93.519,20.709],[93.581,20.726],[93.631,20.722],[93.63,20.753],[93.603,20.782],[93.609,20.831],[93.599,20.847],[93.63,20.867],[93.631,20.918],[93.696,20.92],[93.746,20.836],[93.751,20.802],[93.776,20.765],[93.82,20.777],[93.85,20.71],[93.841,20.687],[93.863,20.65]]]},"properties":{"shapeName":"Chin","shapeISO":"MM-14","shapeID":"20573499B58864057590207","shapeGroup":"MMR","shapeType":"ADM1"}},
{"type":"Feature","geometry":{"type":"Polygon","coordinates":[[[94.008,22.737],[94.057,22.731],[94.115,22.771],[94.117,22.699],[94.173,22.689],[94.214,22.607],[94.245,22.566],[94.276,22.489],[94.281,22.44],[94.261,22.397],[94.268,22.315],[94.245,22.3],[94.271,22.19],[94.296,22.152],[94.381,22.117],[94.417,22.137],[94.422,22.078],[94.435,22.035],[94.419,22.026],[94.41,21.988],[94.425,21.963],[94.41,21.872],[94.414,21.832],[94.452,21.823],[94.496,21.786],[94.544,21.792],[94.541,21.838],[94.588,21.838],[94.661,21.873],[94.77,21.831],[94.788,21.848],[94.858,21.864],[94.926,21.833],[95.063,21.836],[95.082,21.852],[95.12,21.856],[95.164,21.835],[95.161,21.811],[95.201,21.766],[95.206,21.74],[95.244,21.715],[95.243,21.675],[95.298,21.654],[95.322,21.627],[95.342,21.576],[95.346,21.608],[95.365,21.645],[95.37,21.704],[95.416,21.744],[95.422,21.763],[95.403,21.791],[95.426,21.801],[95.495,21.887],[95.524,21.907],[95.588,21.922],[95.673,21.92],[95.718,21.928],[95.741,21.918],[95.795,21.92],[95.828,21.906],[95.872,21.9],[95.913,21.86],[95.938,21.852],[95.991,21.87],[96.019,21.938],[96.025,21.977],[96.014,22.003],[96.023,22.046],[95.994,22.111],[95.998,22.161],[95.989,22.173],[95.986,22.298],[96.01,22.318],[95.964,22.379],[95.958,22.416],[95.969,22.437],[95.961,22.475],[95.996,22.528],[95.946,22.601],[95.937,22.638],[95.905,22.673],[95.904,22.723],[95.953,22.737],[95.968,22.752],[95.967,22.928],[95.979,22.964],[95.973,23.013],[95.993,23.104],[95.98,23.159],[95.959,23.166],[95.952,23.221],[95.959,23.247],[95.93,23.281],[95.95,23.311],[95.904,23.37],[95.923,23.436],[95.967,23.461],[95.97,23.533],[96.01,23.512],[96.012,23.545],[96.035,23.602],[96.084,23.624],[96.079,23.654],[96.109,23.682],[96.136,23.68],[96.121,23.638],[96.142,23.619],[96.137,23.591],[96.214,23.589],[96.251,23.576],[96.281,23.631],[96.34,23.635],[96.364,23.616],[96.371,23.587],[96.393,23.57],[96.397,23.587],[96.437,23.635],[96.438,23.695],[96.515,23.752],[96.531,23.805],[96.559,23.823],[96.557,23.856],[96.526,23.887],[96.528,23.909],[96.509,23.951],[96.517,23.97],[96.507,24.006],[96.469,24.017],[96.433,23.996],[96.39,24.028],[96.457,24.101],[96.502,24.111],[96.519,24.101],[96.558,24.155],[96.627,24.146],[96.663,24.158],[96.659,24.17],[96.576,24.225],[96.57,24.249],[96.596,24.271],[96.603,24.318],[96.571,24.32],[96.562,24.347],[96.592,24.373],[96.582,24.396],[96.643,24.419],[96.63,24.458],[96.592,24.482],[96.576,24.468],[96.525,24.498],[96.499,24.486],[96.478,24.515],[96.449,24.52],[96.432,24.544],[96.374,24.515],[96.336,24.521],[96.3,24.507],[96.274,24.522],[96.185,24.48],[96.197,24.53],[96.178,24.529],[96.115,24.57],[96.095,24.595],[96.108,24.626],[96.077,24.679],[96.03,24.681],[96.021,24.667],[95.968,24.679],[95.946,24.709],[95.912,24.706],[95.91,24.749],[95.892,24.77],[95.869,24.826],[95.88,24.883],[95.819,24.943],[95.834,24.962],[95.876,24.964],[95.904,24.995],[95.961,24.996],[96.006,25.021],[96.003,25.072],[96.013,25.092],[96.047,25.062],[96.038,25.016],[96.013,25.005],[96.008,24.954],[96.031,24.95],[96.07,24.998],[96.079,25.051],[96.076,25.088],[96.042,25.16],[96.02,25.177],[95.995,25.216],[95.994,25.274],[95.975,25.291],[95.96,25.335],[95.965,25.501],[95.958,25.612],[95.971,25.63],[96.069,25.579],[96.1,25.626],[96.117,25.615],[96.182,25.64],[96.209,25.67],[96.216,25.725],[96.201,25.749],[96.17,25.752],[96.118,25.791],[96.127,25.823],[96.109,25.882],[96.085,25.898],[96.112,25.919],[96.124,25.998],[96.159,26.006],[96.183,26.05],[96.161,26.083],[96.15,26.127],[96.156,26.155],[96.119,26.172],[96.135,26.208],[96.109,26.221],[96.074,26.265],[96.086,26.273],[96.102,26.331],[96.052,26.354],[96.03,26.383],[96.001,26.392],[96.016,26.448],[96.004,26.48],[96.043,26.494],[96.165,26.497],[96.183,26.524],[96.161,26.548],[96.155,26.582],[96.137,26.595],[96.13,26.636],[96.083,26.652],[96.103,26.726],[96.16,26.749],[96.197,26.757],[96.21,26.791],[96.248,26.801],[96.25,26.828],[96.231,26.87],[96.245,26.889],[96.283,26.876],[96.278,26.91],[96.314,26.93],[96.307,26.955],[96.242,26.955],[96.251,26.983],[96.304,26.988],[96.33,27.019],[96.405,27.007],[96.425,26.984],[96.526,26.996],[96.57,26.982],[96.586,26.998],[96.647,27.008],[96.697,26.993],[96.719,27.002],[96.741,27.039],[96.788,27.031],[96.828,27.045],[96.942,27.045],[96.986,27.024],[97.05,27.056],[97.067,27.093],[97.009,27.139],[96.955,27.162],[96.896,27.17],[96.859,27.19],[96.888,27.248],[96.848,27.27],[96.799,27.344],[96.703,27.372],[96.697,27.358],[96.604,27.364],[96.584,27.333],[96.508,27.298],[96.425,27.302],[96.385,27.284],[96.308,27.293],[96.27,27.272],[96.228,27.277],[96.186,27.25],[96.154,27.247],[96.09,27.223],[96.027,27.182],[96.015,27.157],[95.933,27.048],[95.875,27.013],[95.8,27.014],[95.76,26.943],[95.742,26.896],[95.704,26.882],[95.668,26.903],[95.631,26.872],[95.607,26.812],[95.568,26.816],[95.542,26.834],[95.507,26.808],[95.477,26.742],[95.462,26.743],[95.433,26.701],[95.338,26.674],[95.303,26.653],[95.258,26.655],[95.234,26.681],[95.199,26.643],[95.182,26.643],[95.147,26.612],[95.153,26.583],[95.136,26.557],[95.106,26.541],[95.114,26.52],[95.075,26.475],[95.103,26.42],[95.097,26.401],[95.13,26.382],[95.122,26.273],[95.114,26.234],[95.143,26.212],[95.123,26.192],[95.119,26.1],[95.165,26.092],[95.185,26.074],[95.159,26.026],[95.09,25.952],[95.032,25.928],[95.012,25.897],[95.033,25.814],[95.05,25.797],[95.038,25.741],[94.994,25.724],[94.987,25.705],[94.936,25.669],[94.915,25.61],[94.882,25.588],[94.881,25.563],[94.847,25.562],[94.826,25.541],[94.807,25.495],[94.784,25.481],[94.744,25.482],[94.684,25.465],[94.675,25.425],[94.638,25.397],[94.635,25.359],[94.586,25.265],[94.578,25.214],[94.608,25.182],[94.705,25.144],[94.742,25.125],[94.743,25.034],[94.697,24.962],[94.705,24.93],[94.684,24.887],[94.651,24.864],[94.634,24.836],[94.621,24.782],[94.63,24.76],[94.609,24.715],[94.544,24.705],[94.542,24.643],[94.511,24.593],[94.456,24.571],[94.431,24.495],[94.394,24.483],[94.41,24.437],[94.351,24.333],[94.324,24.327],[94.323,24.276],[94.287,24.228],[94.277,24.172],[94.261,24.164],[94.252,24.125],[94.255,24.081],[94.238,24.035],[94.201,23.981],[94.188,23.931],[94.17,23.915],[94.156,23.848],[94.142,23.835],[94.137,23.774],[94.153,23.739],[94.137,23.721],[94.15,23.691],[94.128,23.665],[94.118,23.557],[94.076,23.548],[94.04,23.573],[94.016,23.541],[94.027,23.525],[94.037,23.432],[94.03,23.385],[94.003,23.371],[94.01,23.29],[93.999,23.255],[93.955,23.22],[93.946,23.18],[93.977,23.125],[93.977,23.09],[94.005,23.057],[94.001,22.983],[94.024,22.948],[93.99,22.947],[94.011,22.905],[94.017,22.853],[93.987,22.83],[94.008,22.771],[94.008,22.737]]]},"properties":{"shapeName":"Saigang","shapeISO":"MM-01","shapeID":"20573499B8199738503087","shapeGroup":"MMR","shapeType":"ADM1"}},
{"type":"Feature","geometry":{"type":"Polygon","coordinates":[[[96.663,24.158],[96.695,24.106],[96.703,24.029],[96.679,24],[96.755,23.994],[96.789,24.015],[96.846,24.024],[96.859,24.004],[96.841,23.976],[96.843,23.889],[96.869,23.885],[96.886,23.847],[96.855,23.787],[96.822,23.777],[96.791,23.783],[96.784,23.743],[96.856,23.732],[96.87,23.716],[96.975,23.716],[97.004,23.696],[97.015,23.644],[97.103,23.642],[97.121,23.665],[97.152,23.676],[97.179,23.67],[97.272,23.712],[97.304,23.704],[97.373,23.745],[97.409,23.739],[97.467,23.781],[97.453,23.799],[97.475,23.819],[97.547,23.823],[97.572,23.815],[97.61,23.828],[97.638,23.863],[97.633,23.881],[97.557,23.92],[97.531,23.949],[97.563,23.964],[97.576,23.986],[97.628,24.007],[97.635,24.045],[97.729,24.115],[97.746,24.179],[97.728,24.188],[97.729,24.229],[97.77,24.263],[97.716,24.299],[97.668,24.299],[97.665,24.344],[97.703,24.344],[97.715,24.377],[97.691,24.387],[97.676,24.45],[97.623,24.441],[97.531,24.437],[97.554,24.489],[97.569,24.603],[97.572,24.661],[97.566,24.726],[97.551,24.743],[97.589,24.769],[97.645,24.793],[97.679,24.828],[97.706,24.841],[97.764,24.826],[97.801,24.849],[97.786,24.881],[97.762,24.882],[97.731,24.912],[97.732,24.95],[97.719,24.978],[97.727,25.045],[97.722,25.078],[97.763,25.105],[97.796,25.16],[97.807,25.204],[97.838,25.27],[97.875,25.262],[97.901,25.222],[97.946,25.224],[97.991,25.26],[98.02,25.309],[98.067,25.309],[98.097,25.354],[98.102,25.392],[98.14,25.39],[98.158,25.458],[98.126,25.509],[98.176,25.55],[98.188,25.575],[98.168,25.626],[98.254,25.606],[98.292,25.576],[98.304,25.55],[98.38,25.596],[98.403,25.596],[98.411,25.662],[98.459,25.689],[98.465,25.743],[98.493,25.808],[98.533,25.845],[98.563,25.848],[98.578,25.828],[98.639,25.801],[98.674,25.819],[98.705,25.852],[98.705,25.897],[98.685,25.938],[98.642,25.977],[98.617,25.975],[98.603,26.053],[98.573,26.121],[98.628,26.148],[98.666,26.123],[98.667,26.09],[98.716,26.126],[98.709,26.157],[98.735,26.185],[98.706,26.242],[98.672,26.242],[98.683,26.308],[98.728,26.348],[98.751,26.423],[98.743,26.436],[98.757,26.492],[98.755,26.565],[98.772,26.578],[98.781,26.623],[98.762,26.666],[98.771,26.69],[98.743,26.712],[98.754,26.734],[98.762,26.8],[98.735,26.858],[98.758,26.885],[98.739,26.962],[98.745,27.014],[98.764,27.021],[98.766,27.053],[98.714,27.077],[98.713,27.141],[98.696,27.212],[98.724,27.224],[98.717,27.272],[98.734,27.288],[98.735,27.351],[98.706,27.363],[98.703,27.415],[98.687,27.424],[98.701,27.467],[98.687,27.487],[98.703,27.564],[98.674,27.586],[98.65,27.567],[98.585,27.588],[98.558,27.646],[98.511,27.625],[98.471,27.639],[98.444,27.667],[98.429,27.596],[98.429,27.553],[98.399,27.54],[98.373,27.509],[98.318,27.523],[98.308,27.545],[98.302,27.631],[98.285,27.656],[98.224,27.711],[98.247,27.741],[98.219,27.759],[98.225,27.811],[98.18,27.83],[98.17,27.852],[98.201,27.876],[98.189,27.939],[98.152,27.942],[98.134,27.992],[98.138,28.044],[98.16,28.099],[98.121,28.164],[98.094,28.17],[98.078,28.204],[98.032,28.189],[98.007,28.216],[98.024,28.246],[97.992,28.291],[97.942,28.331],[97.909,28.368],[97.868,28.366],[97.844,28.33],[97.794,28.334],[97.79,28.358],[97.736,28.401],[97.74,28.46],[97.722,28.497],[97.692,28.506],[97.66,28.537],[97.63,28.536],[97.615,28.518],[97.574,28.546],[97.533,28.509],[97.5,28.494],[97.523,28.445],[97.505,28.432],[97.502,28.4],[97.483,28.388],[97.501,28.34],[97.463,28.271],[97.418,28.296],[97.402,28.279],[97.412,28.25],[97.387,28.237],[97.35,28.239],[97.363,28.199],[97.352,28.151],[97.331,28.143],[97.331,28.088],[97.393,28.011],[97.364,27.96],[97.378,27.892],[97.365,27.873],[97.298,27.915],[97.247,27.899],[97.235,27.881],[97.156,27.811],[97.139,27.808],[97.096,27.769],[97.095,27.75],[97.019,27.736],[96.987,27.675],[96.964,27.658],[96.93,27.66],[96.915,27.621],[96.889,27.607],[96.905,27.585],[96.913,27.516],[96.903,27.457],[96.962,27.402],[96.963,27.377],[96.991,27.344],[96.999,27.318],[97.029,27.306],[97.054,27.267],[97.088,27.237],[97.092,27.213],[97.121,27.189],[97.165,27.135],[97.138,27.092],[97.098,27.106],[97.067,27.093],[97.05,27.056],[96.986,27.024],[96.942,27.045],[96.828,27.045],[96.788,27.031],[96.741,27.039],[96.719,27.002],[96.697,26.993],[96.647,27.008],[96.586,26.998],[96.57,26.982],[96.526,26.996],[96.425,26.984],[96.405,27.007],[96.33,27.019],[96.304,26.988],[96.251,26.983],[96.242,26.955],[96.307,26.955],[96.314,26.93],[96.278,26.91],[96.283,26.876],[96.245,26.889],[96.231,26.87],[96.25,26.828],[96.248,26.801],[96.21,26.791],[96.197,26.757],[96.16,26.749],[96.103,26.726],[96.083,26.652],[96.13,26.636],[96.137,26.595],[96.155,26.582],[96.161,26.548],[96.183,26.524],[96.165,26.497],[96.043,26.494],[96.004,26.48],[96.016,26.448],[96.001,26.392],[96.03,26.383],[96.052,26.354],[96.102,26.331],[96.086,26.273],[96.074,26.265],[96.109,26.221],[96.135,26.208],[96.119,26.172],[96.156,26.155],[96.15,26.127],[96.161,26.083],[96.183,26.05],[96.159,26.006],[96.124,25.998],[96.112,25.919],[96.085,25.898],[96.109,25.882],[96.127,25.823],[96.118,25.791],[96.17,25.752],[96.201,25.749],[96.216,25.725],[96.209,25.67],[96.182,25.64],[96.117,25.615],[96.1,25.626],[96.069,25.579],[95.971,25.63],[95.958,25.612],[95.965,25.501],[95.96,25.335],[95.975,25.291],[95.994,25.274],[95.995,25.216],[96.02,25.177],[96.042,25.16],[96.076,25.088],[96.079,25.051],[96.07,24.998],[96.031,24.95],[96.008,24.954],[96.013,25.005],[96.038,25.016],[96.047,25.062],[96.013,25.092],[96.003,25.072],[96.006,25.021],[95.961,24.996],[95.904,24.995],[95.876,24.964],[95.834,24.962],[95.819,24.943],[95.88,24.883],[95.869,24.826],[95.892,24.77],[95.91,24.749],[95.912,24.706],[95.946,24.709],[95.968,24.679],[96.021,24.667],[96.03,24.681],[96.077,24.679],[96.108,24.626],[96.095,24.595],[96.115,24.57],[96.178,24.529],[96.197,24.53],[96.185,24.48],[96.274,24.522],[96.3,24.507],[96.336,24.521],[96.374,24.515],[96.432,24.544],[96.449,24.52],[96.478,24.515],[96.499,24.486],[96.525,24.498],[96.576,24.468],[96.592,24.482],[96.63,24.458],[96.643,24.419],[96.582,24.396],[96.592,24.373],[96.562,24.347],[96.571,24.32],[96.603,24.318],[96.596,24.271],[96.57,24.249],[96.576,24.225],[96.659,24.17],[96.663,24.158]]]},"properties":{"shapeName":"Kachin","shapeISO":"MM-11","shapeID":"20573499B79934184351821","shapeGroup":"MMR","shapeType":"ADM1"}},
{"type":"Feature","geometry":{"type":"Polygon","coordinates":[[[97.359,18.598],[97.364,18.557],[97.403,18.566],[97.428,18.543],[97.445,18.493],[97.482,18.51],[97.501,18.494],[97.534,18.491],[97.545,18.529],[97.603,18.536],[97.653,18.575],[97.702,18.569],[97.734,18.586],[97.769,18.578],[97.773,18.695],[97.753,18.737],[97.765,18.758],[97.739,18.829],[97.75,18.843],[97.742,18.882],[97.699,18.904],[97.67,18.931],[97.705,18.967],[97.737,18.976],[97.738,19.041],[97.766,19.067],[97.837,19.093],[97.844,19.145],[97.844,19.22],[97.802,19.258],[97.831,19.301],[97.801,19.352],[97.802,19.402],[97.877,19.496],[97.857,19.545],[97.863,19.575],[97.849,19.609],[97.859,19.632],[97.831,19.656],[97.796,19.647],[97.754,19.672],[97.736,19.656],[97.676,19.662],[97.626,19.675],[97.562,19.732],[97.562,19.764],[97.579,19.814],[97.547,19.834],[97.517,19.897],[97.443,19.88],[97.432,19.903],[97.4,19.918],[97.385,19.956],[97.351,19.947],[97.315,19.901],[97.266,19.891],[97.227,19.902],[97.209,19.989],[97.169,19.997],[97.155,19.967],[97.141,19.903],[97.147,19.833],[97.134,19.799],[97.152,19.781],[97.116,19.751],[97.128,19.715],[97.094,19.715],[97.05,19.692],[97.015,19.691],[97.017,19.654],[96.954,19.614],[96.945,19.586],[96.898,19.556],[96.906,19.534],[96.873,19.508],[96.936,19.461],[96.966,19.427],[96.922,19.402],[96.875,19.355],[96.886,19.338],[96.853,19.312],[96.834,19.333],[96.822,19.324],[96.82,19.255],[96.841,19.218],[96.849,19.175],[96.886,19.15],[96.903,19.156],[96.923,19.093],[96.95,19.071],[96.93,19.052],[96.953,19.02],[96.943,18.998],[96.965,18.946],[97.002,18.919],[96.995,18.881],[97.026,18.862],[97.063,18.768],[97.102,18.687],[97.137,18.691],[97.145,18.687],[97.216,18.677],[97.252,18.681],[97.265,18.687],[97.306,18.683],[97.337,18.643],[97.359,18.598]]]},"properties":{"shapeName":"Kayah","shapeISO":"MM-12","shapeID":"20573499B20332088310808","shapeGroup":"MMR","shapeType":"ADM1"}},
{"type":"Feature","geometry":{"type":"Polygon","coordinates":[[[97.265,18.687],[97.252,18.681],[97.216,18.677],[97.145,18.687],[97.137,18.691],[97.102,18.687],[97.063,18.768],[97.026,18.862],[96.995,18.881],[97.002,18.919],[96.965,18.946],[96.943,18.998],[96.953,19.02],[96.93,19.052],[96.95,19.071],[96.923,19.093],[96.903,19.156],[96.886,19.15],[96.849,19.175],[96.841,19.218],[96.82,19.255],[96.822,19.324],[96.834,19.333],[96.831,19.354],[96.801,19.404],[96.765,19.432],[96.698,19.451],[96.668,19.509],[96.636,19.477],[96.631,19.443],[96.612,19.427],[96.563,19.473],[96.525,19.471],[96.5,19.49],[96.47,19.476],[96.392,19.474],[96.435,19.438],[96.408,19.411],[96.428,19.38],[96.461,19.353],[96.461,19.303],[96.479,19.268],[96.497,19.207],[96.554,19.174],[96.508,19.148],[96.51,19.09],[96.572,19.038],[96.584,18.937],[96.636,18.95],[96.675,18.924],[96.634,18.902],[96.612,18.912],[96.595,18.87],[96.629,18.831],[96.636,18.792],[96.573,18.785],[96.58,18.753],[96.603,18.709],[96.627,18.695],[96.65,18.647],[96.695,18.599],[96.728,18.631],[96.781,18.602],[96.815,18.599],[96.862,18.636],[96.937,18.65],[96.957,18.608],[96.973,18.601],[96.983,18.552],[96.976,18.473],[96.956,18.431],[96.982,18.406],[96.99,18.376],[97.033,18.374],[97.047,18.345],[97.048,18.306],[97.077,18.291],[97.085,18.321],[97.118,18.309],[97.14,18.25],[97.125,18.21],[97.194,18.156],[97.173,18.074],[97.118,17.99],[97.116,17.947],[97.163,17.874],[97.178,17.838],[97.185,17.833],[97.193,17.787],[97.166,17.757],[97.156,17.725],[97.178,17.678],[97.171,17.665],[97.205,17.626],[97.197,17.557],[97.212,17.554],[97.217,17.549],[97.219,17.543],[97.235,17.579],[97.261,17.6],[97.317,17.603],[97.343,17.652],[97.365,17.675],[97.369,17.714],[97.407,17.705],[97.377,17.678],[97.368,17.641],[97.379,17.589],[97.399,17.557],[97.439,17.532],[97.425,17.475],[97.442,17.448],[97.445,17.39],[97.475,17.361],[97.495,17.325],[97.5,17.287],[97.48,17.279],[97.498,17.224],[97.501,17.149],[97.468,17.068],[97.482,17.054],[97.444,16.976],[97.478,16.933],[97.474,16.886],[97.491,16.843],[97.518,16.835],[97.513,16.801],[97.561,16.784],[97.56,16.72],[97.572,16.719],[97.612,16.653],[97.64,16.642],[97.655,16.593],[97.695,16.603],[97.7,16.573],[97.748,16.562],[97.764,16.538],[97.799,16.518],[97.846,16.545],[97.858,16.479],[97.906,16.453],[97.916,16.427],[97.961,16.421],[97.98,16.435],[97.995,16.334],[98.044,16.315],[98.081,16.268],[98.078,16.247],[98.125,16.194],[98.125,16.157],[98.063,16.122],[98.03,16.147],[97.947,16.15],[97.908,16.132],[97.872,16.145],[97.813,16.126],[97.851,16.071],[97.867,16.023],[97.844,16.012],[97.835,15.97],[97.85,15.93],[97.832,15.907],[97.834,15.866],[97.86,15.825],[97.872,15.728],[97.867,15.678],[97.901,15.674],[97.922,15.637],[97.949,15.64],[97.948,15.609],[97.978,15.591],[98.008,15.539],[98.038,15.513],[98.067,15.457],[98.116,15.384],[98.139,15.33],[98.184,15.309],[98.205,15.261],[98.203,15.236],[98.263,15.239],[98.282,15.272],[98.321,15.302],[98.374,15.283],[98.401,15.254],[98.414,15.293],[98.395,15.307],[98.42,15.363],[98.457,15.366],[98.493,15.392],[98.537,15.369],[98.561,15.336],[98.581,15.38],[98.586,15.47],[98.553,15.6],[98.566,15.636],[98.547,15.683],[98.567,15.767],[98.592,15.834],[98.6,15.874],[98.585,15.913],[98.608,15.966],[98.597,16.005],[98.566,16.03],[98.581,16.062],[98.628,16.061],[98.662,16.075],[98.675,16.094],[98.665,16.127],[98.712,16.134],[98.723,16.123],[98.78,16.125],[98.804,16.104],[98.854,16.14],[98.863,16.17],[98.854,16.219],[98.874,16.24],[98.911,16.255],[98.917,16.305],[98.901,16.314],[98.92,16.363],[98.907,16.396],[98.883,16.419],[98.831,16.422],[98.817,16.388],[98.748,16.348],[98.707,16.295],[98.704,16.272],[98.67,16.283],[98.664,16.365],[98.639,16.43],[98.657,16.456],[98.636,16.478],[98.578,16.564],[98.587,16.584],[98.575,16.62],[98.517,16.655],[98.518,16.686],[98.503,16.712],[98.464,16.73],[98.488,16.79],[98.549,16.814],[98.535,16.831],[98.496,16.837],[98.499,16.861],[98.521,16.877],[98.515,16.9],[98.484,16.939],[98.499,16.949],[98.473,16.988],[98.449,16.996],[98.44,17.023],[98.411,17.056],[98.339,17.053],[98.316,17.075],[98.314,17.115],[98.286,17.113],[98.285,17.156],[98.268,17.163],[98.246,17.21],[98.212,17.23],[98.205,17.249],[98.165,17.266],[98.105,17.352],[98.11,17.385],[98.046,17.43],[98.034,17.456],[97.989,17.512],[97.925,17.539],[97.906,17.583],[97.848,17.629],[97.765,17.726],[97.774,17.752],[97.736,17.795],[97.702,17.818],[97.672,17.881],[97.69,17.927],[97.732,17.953],[97.738,17.973],[97.706,18.059],[97.678,18.117],[97.676,18.159],[97.622,18.215],[97.61,18.24],[97.64,18.28],[97.627,18.313],[97.589,18.334],[97.551,18.334],[97.534,18.283],[97.504,18.266],[97.462,18.308],[97.445,18.337],[97.452,18.377],[97.403,18.448],[97.39,18.496],[97.355,18.531],[97.343,18.576],[97.359,18.598],[97.337,18.643],[97.306,18.683],[97.265,18.687]]]},"properties":{"shapeName":"Kayin","shapeISO":"MM-13","shapeID":"20573499B82081528957960","shapeGroup":"MMR","shapeType":"ADM1"}},
{"type":"Feature","geometry":{"type":"Polygon","coordinates":[[[93.863,20.65],[93.846,20.616],[93.861,20.595],[93.847,20.556],[93.891,20.552],[93.929,20.565],[93.942,20.53],[93.97,20.525],[93.988,20.498],[94,20.449],[94.021,20.409],[94.056,20.367],[94.079,20.373],[94.081,20.336],[94.105,20.294],[94.124,20.285],[94.137,20.201],[94.16,20.184],[94.172,20.126],[94.212,20.106],[94.205,20.062],[94.227,20.027],[94.237,19.991],[94.269,19.931],[94.297,19.924],[94.313,19.856],[94.281,19.83],[94.319,19.71],[94.339,19.669],[94.338,19.629],[94.35,19.618],[94.344,19.563],[94.395,19.499],[94.431,19.478],[94.447,19.436],[94.499,19.392],[94.527,19.341],[94.533,19.292],[94.487,19.281],[94.489,19.228],[94.536,19.146],[94.593,19.148],[94.6,19.128],[94.655,19.085],[94.688,19.037],[94.668,19.015],[94.697,18.96],[94.732,18.96],[94.834,18.981],[94.906,18.937],[94.944,18.94],[94.989,18.924],[95.019,18.896],[95.025,18.867],[95.059,18.832],[95.082,18.864],[95.134,18.866],[95.154,18.885],[95.151,18.932],[95.164,18.956],[95.214,18.964],[95.223,18.983],[95.284,19.002],[95.273,19.068],[95.316,19.099],[95.369,19.096],[95.422,19.177],[95.458,19.182],[95.474,19.167],[95.508,19.185],[95.551,19.165],[95.589,19.172],[95.613,19.154],[95.69,19.184],[95.729,19.19],[95.809,19.156],[95.858,19.259],[95.855,19.324],[95.814,19.385],[95.814,19.433],[95.795,19.46],[95.746,19.491],[95.723,19.562],[95.729,19.616],[95.713,19.628],[95.747,19.66],[95.78,19.719],[95.764,19.758],[95.787,19.778],[95.79,19.811],[95.817,19.817],[95.811,19.874],[95.788,19.909],[95.796,19.939],[95.77,19.974],[95.794,20.024],[95.78,20.056],[95.833,20.129],[95.834,20.144],[95.798,20.164],[95.791,20.2],[95.743,20.298],[95.728,20.345],[95.755,20.363],[95.753,20.39],[95.721,20.449],[95.73,20.467],[95.712,20.514],[95.663,20.557],[95.613,20.561],[95.576,20.587],[95.57,20.625],[95.585,20.641],[95.599,20.698],[95.571,20.746],[95.523,20.755],[95.467,20.757],[95.397,20.698],[95.363,20.703],[95.342,20.687],[95.306,20.714],[95.211,20.635],[95.176,20.646],[95.125,20.618],[95.08,20.614],[95.081,20.596],[95.038,20.547],[95.03,20.573],[95.04,20.599],[95.001,20.618],[94.992,20.647],[95.018,20.674],[95.009,20.696],[95.014,20.743],[95.041,20.751],[95.042,20.833],[95.022,20.865],[94.978,20.868],[94.942,20.858],[94.902,20.877],[94.875,20.905],[94.846,20.913],[94.834,20.946],[94.838,21.021],[94.83,21.073],[94.839,21.153],[94.856,21.201],[94.993,21.236],[95.019,21.276],[95.138,21.327],[95.17,21.318],[95.185,21.345],[95.238,21.396],[95.275,21.422],[95.273,21.453],[95.319,21.454],[95.331,21.476],[95.32,21.504],[95.342,21.576],[95.322,21.627],[95.298,21.654],[95.243,21.675],[95.244,21.715],[95.206,21.74],[95.201,21.766],[95.161,21.811],[95.164,21.835],[95.12,21.856],[95.082,21.852],[95.063,21.836],[94.926,21.833],[94.858,21.864],[94.788,21.848],[94.77,21.831],[94.661,21.873],[94.588,21.838],[94.541,21.838],[94.544,21.792],[94.496,21.786],[94.452,21.823],[94.414,21.832],[94.41,21.872],[94.425,21.963],[94.41,21.988],[94.419,22.026],[94.435,22.035],[94.422,22.078],[94.417,22.137],[94.381,22.117],[94.296,22.152],[94.271,22.19],[94.245,22.3],[94.268,22.315],[94.261,22.397],[94.281,22.44],[94.276,22.489],[94.245,22.566],[94.214,22.607],[94.173,22.689],[94.117,22.699],[94.115,22.771],[94.057,22.731],[94.008,22.737],[94.049,22.606],[94.017,22.595],[94.017,22.568],[94.048,22.451],[94.058,22.437],[94.018,22.366],[94.038,22.254],[94.042,22.156],[94.006,22.081],[94.018,21.996],[93.981,21.924],[94.006,21.72],[94.042,21.672],[94.103,21.635],[94.118,21.573],[94.096,21.557],[94.097,21.523],[94.077,21.481],[94.089,21.465],[94.065,21.395],[94.048,21.362],[94.055,21.336],[94.006,21.3],[94.024,21.281],[94.094,21.279],[94.094,21.213],[94.12,21.168],[94.112,21.112],[94.085,21.073],[94.053,21.067],[94.077,21.035],[94.044,21.014],[94.004,20.96],[94.031,20.887],[94.058,20.858],[94.039,20.828],[94.051,20.793],[94.084,20.75],[94.045,20.688],[93.99,20.682],[93.98,20.669],[93.886,20.642],[93.863,20.65]]]},"properties":{"shapeName":"Magway","shapeISO":"MM-03","shapeID":"20573499B51748932062429","shapeGroup":"MMR","shapeType":"ADM1"}},
{"type":"Feature","geometry":{"type":"Polygon","coordinates":[[[95.342,21.576],[95.32,21.504],[95.331,21.476],[95.319,21.454],[95.273,21.453],[95.275,21.422],[95.238,21.396],[95.185,21.345],[95.17,21.318],[95.138,21.327],[95.019,21.276],[94.993,21.236],[94.856,21.201],[94.839,21.153],[94.83,21.073],[94.838,21.021],[94.834,20.946],[94.846,20.913],[94.875,20.905],[94.902,20.877],[94.942,20.858],[94.978,20.868],[95.022,20.865],[95.042,20.833],[95.041,20.751],[95.014,20.743],[95.009,20.696],[95.018,20.674],[94.992,20.647],[95.001,20.618],[95.04,20.599],[95.03,20.573],[95.038,20.547],[95.081,20.596],[95.08,20.614],[95.125,20.618],[95.176,20.646],[95.211,20.635],[95.306,20.714],[95.342,20.687],[95.363,20.703],[95.397,20.698],[95.467,20.757],[95.523,20.755],[95.571,20.746],[95.599,20.698],[95.585,20.641],[95.57,20.625],[95.576,20.587],[95.613,20.561],[95.663,20.557],[95.712,20.514],[95.73,20.467],[95.721,20.449],[95.753,20.39],[95.755,20.363],[95.728,20.345],[95.743,20.298],[95.791,20.2],[95.798,20.164],[95.834,20.144],[95.833,20.129],[95.78,20.056],[95.794,20.024],[95.77,19.974],[95.796,19.939],[95.788,19.909],[95.811,19.874],[95.817,19.817],[95.79,19.811],[95.787,19.778],[95.764,19.758],[95.78,19.719],[95.747,19.66],[95.713,19.628],[95.729,19.616],[95.723,19.562],[95.746,19.491],[95.795,19.46],[95.831,19.456],[95.872,19.437],[95.895,19.438],[95.909,19.474],[95.973,19.476],[96.037,19.453],[96.054,19.463],[96.094,19.424],[96.129,19.417],[96.137,19.443],[96.161,19.453],[96.169,19.487],[96.269,19.483],[96.392,19.474],[96.47,19.476],[96.5,19.49],[96.525,19.471],[96.563,19.473],[96.612,19.427],[96.631,19.443],[96.636,19.477],[96.668,19.509],[96.675,19.519],[96.648,19.577],[96.597,19.576],[96.559,19.587],[96.549,19.617],[96.594,19.656],[96.644,19.675],[96.657,19.69],[96.634,19.725],[96.607,19.732],[96.597,19.756],[96.561,19.791],[96.551,19.833],[96.521,19.858],[96.454,19.85],[96.444,19.865],[96.442,19.915],[96.394,19.963],[96.363,20.013],[96.403,20.031],[96.428,20.02],[96.443,20.052],[96.476,20.07],[96.441,20.136],[96.486,20.163],[96.489,20.18],[96.547,20.222],[96.516,20.293],[96.496,20.315],[96.5,20.338],[96.475,20.37],[96.464,20.451],[96.489,20.5],[96.544,20.512],[96.541,20.597],[96.484,20.609],[96.453,20.654],[96.464,20.744],[96.479,20.769],[96.512,20.784],[96.564,20.783],[96.574,20.871],[96.55,20.893],[96.523,20.887],[96.507,20.921],[96.468,20.903],[96.434,20.918],[96.428,20.943],[96.389,20.929],[96.343,20.943],[96.298,20.968],[96.272,20.967],[96.238,21.004],[96.217,21.009],[96.211,21.065],[96.23,21.089],[96.219,21.134],[96.266,21.168],[96.331,21.168],[96.357,21.161],[96.377,21.176],[96.346,21.229],[96.321,21.29],[96.324,21.309],[96.296,21.382],[96.296,21.437],[96.287,21.463],[96.341,21.489],[96.321,21.535],[96.333,21.547],[96.378,21.545],[96.581,21.595],[96.593,21.616],[96.634,21.645],[96.683,21.711],[96.722,21.724],[96.738,21.705],[96.766,21.716],[96.821,21.766],[96.849,21.741],[96.896,21.743],[96.876,21.823],[96.859,21.86],[96.829,21.896],[96.817,21.932],[96.755,22.007],[96.753,22.051],[96.738,22.082],[96.716,22.09],[96.656,22.089],[96.639,22.111],[96.564,22.114],[96.548,22.14],[96.484,22.153],[96.481,22.229],[96.454,22.299],[96.422,22.332],[96.409,22.364],[96.388,22.371],[96.338,22.367],[96.324,22.375],[96.32,22.454],[96.334,22.467],[96.331,22.504],[96.29,22.529],[96.298,22.573],[96.279,22.585],[96.24,22.639],[96.237,22.682],[96.204,22.738],[96.273,22.793],[96.286,22.784],[96.358,22.779],[96.382,22.802],[96.418,22.801],[96.45,22.786],[96.514,22.806],[96.535,22.828],[96.609,22.816],[96.665,22.85],[96.672,22.892],[96.704,22.933],[96.713,22.96],[96.68,22.985],[96.633,22.977],[96.542,23.026],[96.515,23.053],[96.39,23.014],[96.295,23.004],[96.237,23.014],[96.194,23.047],[96.194,23.091],[96.153,23.121],[96.152,23.16],[96.171,23.176],[96.188,23.229],[96.183,23.273],[96.198,23.3],[96.165,23.329],[96.193,23.35],[96.218,23.332],[96.228,23.368],[96.249,23.4],[96.298,23.446],[96.31,23.498],[96.339,23.513],[96.358,23.549],[96.393,23.57],[96.371,23.587],[96.364,23.616],[96.34,23.635],[96.281,23.631],[96.251,23.576],[96.214,23.589],[96.137,23.591],[96.142,23.619],[96.121,23.638],[96.136,23.68],[96.109,23.682],[96.079,23.654],[96.084,23.624],[96.035,23.602],[96.012,23.545],[96.01,23.512],[95.97,23.533],[95.967,23.461],[95.923,23.436],[95.904,23.37],[95.95,23.311],[95.93,23.281],[95.959,23.247],[95.952,23.221],[95.959,23.166],[95.98,23.159],[95.993,23.104],[95.973,23.013],[95.979,22.964],[95.967,22.928],[95.968,22.752],[95.953,22.737],[95.904,22.723],[95.905,22.673],[95.937,22.638],[95.946,22.601],[95.996,22.528],[95.961,22.475],[95.969,22.437],[95.958,22.416],[95.964,22.379],[96.01,22.318],[95.986,22.298],[95.989,22.173],[95.998,22.161],[95.994,22.111],[96.023,22.046],[96.014,22.003],[96.025,21.977],[96.019,21.938],[95.991,21.87],[95.938,21.852],[95.913,21.86],[95.872,21.9],[95.828,21.906],[95.795,21.92],[95.741,21.918],[95.718,21.928],[95.673,21.92],[95.588,21.922],[95.524,21.907],[95.495,21.887],[95.426,21.801],[95.403,21.791],[95.422,21.763],[95.416,21.744],[95.37,21.704],[95.365,21.645],[95.346,21.608],[95.342,21.576]]]},"properties":{"shapeName":"Mandalay","shapeISO":"MM-04","shapeID":"20573499B45980987355836","shapeGroup":"MMR","shapeType":"ADM1"}},
{"type":"Feature","geometry":{"type":"MultiPolygon","coordinates":[[[[97.589,16.245],[97.611,16.276],[97.601,16.323],[97.582,16.33],[97.571,16.282],[97.589,16.245]]],[[[97.66,15.504],[97.657,15.579],[97.643,15.581],[97.66,15.504]]],[[[97.516,16.501],[97.484,16.507],[97.441,16.481],[97.436,16.46],[97.453,16.433],[97.475,16.359],[97.457,16.309],[97.499,16.26],[97.502,16.222],[97.526,16.197],[97.56,16.203],[97.566,16.232],[97.556,16.291],[97.568,16.331],[97.589,16.368],[97.577,16.396],[97.609,16.462],[97.602,16.492],[97.567,16.489],[97.516,16.501]]],[[[97.846,16.545],[97.801,16.51],[97.763,16.525],[97.739,16.56],[97.675,16.555],[97.647,16.501],[97.617,16.488],[97.624,16.454],[97.612,16.434],[97.63,16.393],[97.613,16.354],[97.637,16.314],[97.638,16.216],[97.611,16.136],[97.557,16.08],[97.606,15.953],[97.671,15.91],[97.71,15.853],[97.716,15.773],[97.698,15.758],[97.726,15.648],[97.728,15.607],[97.758,15.537],[97.735,15.486],[97.763,15.457],[97.777,15.408],[97.742,15.399],[97.733,15.351],[97.717,15.335],[97.736,15.299],[97.727,15.273],[97.767,15.196],[97.803,15.156],[97.806,15.106],[97.79,15.064],[97.798,15.035],[97.78,15.017],[97.811,14.965],[97.79,14.911],[97.793,14.881],[97.839,14.885],[97.835,14.928],[97.868,14.937],[97.864,14.989],[97.884,15.082],[97.95,15.059],[97.959,15.084],[98.018,15.105],[98.04,15.083],[98.043,15.049],[98.1,14.992],[98.121,14.995],[98.208,14.982],[98.213,15.021],[98.235,15.044],[98.185,15.096],[98.19,15.149],[98.214,15.181],[98.203,15.236],[98.205,15.261],[98.184,15.309],[98.139,15.33],[98.116,15.384],[98.067,15.457],[98.038,15.513],[98.008,15.539],[97.978,15.591],[97.948,15.609],[97.949,15.64],[97.922,15.637],[97.901,15.674],[97.867,15.678],[97.872,15.728],[97.86,15.825],[97.834,15.866],[97.832,15.907],[97.85,15.93],[97.835,15.97],[97.844,16.012],[97.867,16.023],[97.851,16.071],[97.813,16.126],[97.872,16.145],[97.908,16.132],[97.947,16.15],[98.03,16.147],[98.063,16.122],[98.125,16.157],[98.125,16.194],[98.078,16.247],[98.081,16.268],[98.044,16.315],[97.995,16.334],[97.98,16.435],[97.961,16.421],[97.916,16.427],[97.906,16.453],[97.858,16.479],[97.846,16.545]]],[[[97.655,16.593],[97.662,16.561],[97.7,16.573],[97.695,16.603],[97.655,16.593]]],[[[97.219,17.543],[97.172,17.511],[97.142,17.511],[97.128,17.488],[97.099,17.482],[97.091,17.52],[97.05,17.565],[97.019,17.57],[96.994,17.611],[96.97,17.607],[96.948,17.624],[96.875,17.599],[96.868,17.545],[96.879,17.494],[96.874,17.436],[96.896,17.379],[96.88,17.34],[96.887,17.312],[96.929,17.311],[96.95,17.288],[96.946,17.234],[96.976,17.206],[97.037,17.179],[97.054,17.161],[97.063,17.102],[97.032,17.035],[97.043,16.999],[97.084,16.915],[97.11,16.923],[97.123,16.95],[97.107,17.009],[97.124,17.045],[97.119,17.077],[97.143,17.088],[97.173,17.061],[97.176,17.021],[97.167,16.942],[97.188,16.931],[97.198,16.89],[97.214,16.884],[97.217,16.837],[97.233,16.788],[97.221,16.739],[97.24,16.708],[97.234,16.684],[97.259,16.66],[97.301,16.648],[97.328,16.656],[97.325,16.614],[97.344,16.569],[97.352,16.516],[97.372,16.507],[97.442,16.541],[97.497,16.536],[97.528,16.545],[97.608,16.521],[97.619,16.527],[97.604,16.578],[97.616,16.63],[97.612,16.653],[97.572,16.719],[97.56,16.72],[97.561,16.784],[97.513,16.801],[97.518,16.835],[97.491,16.843],[97.474,16.886],[97.478,16.933],[97.444,16.976],[97.482,17.054],[97.468,17.068],[97.501,17.149],[97.498,17.224],[97.48,17.279],[97.5,17.287],[97.495,17.325],[97.475,17.361],[97.445,17.39],[97.442,17.448],[97.425,17.475],[97.439,17.532],[97.399,17.557],[97.379,17.589],[97.368,17.641],[97.377,17.678],[97.407,17.705],[97.369,17.714],[97.365,17.675],[97.343,17.652],[97.317,17.603],[97.261,17.6],[97.235,17.579],[97.219,17.543]]]]},"properties":{"shapeName":"Mon","shapeISO":"MM-15","shapeID":"20573499B93796524737308","shapeGroup":"MMR","shapeType":"ADM1"}},
{"type":"Feature","geometry":{"type":"MultiPolygon","coordinates":[[[[94.823,18.36],[94.798,18.371],[94.758,18.457],[94.734,18.468],[94.754,18.509],[94.748,18.541],[94.766,18.564],[94.727,18.577],[94.69,18.626],[94.702,18.655],[94.747,18.657],[94.732,18.719],[94.703,18.757],[94.686,18.803],[94.751,18.829],[94.762,18.859],[94.744,18.9],[94.702,18.922],[94.697,18.96],[94.668,19.015],[94.688,19.037],[94.655,19.085],[94.6,19.128],[94.593,19.148],[94.536,19.146],[94.489,19.228],[94.487,19.281],[94.533,19.292],[94.527,19.341],[94.499,19.392],[94.447,19.436],[94.431,19.478],[94.395,19.499],[94.344,19.563],[94.35,19.618],[94.338,19.629],[94.339,19.669],[94.319,19.71],[94.281,19.83],[94.313,19.856],[94.297,19.924],[94.269,19.931],[94.237,19.991],[94.227,20.027],[94.205,20.062],[94.212,20.106],[94.172,20.126],[94.16,20.184],[94.137,20.201],[94.124,20.285],[94.105,20.294],[94.081,20.336],[94.079,20.373],[94.056,20.367],[94.021,20.409],[94,20.449],[93.988,20.498],[93.97,20.525],[93.942,20.53],[93.929,20.565],[93.891,20.552],[93.847,20.556],[93.861,20.595],[93.846,20.616],[93.863,20.65],[93.841,20.687],[93.85,20.71],[93.82,20.777],[93.776,20.765],[93.751,20.802],[93.746,20.836],[93.696,20.92],[93.631,20.918],[93.63,20.867],[93.599,20.847],[93.609,20.831],[93.603,20.782],[93.63,20.753],[93.631,20.722],[93.581,20.726],[93.519,20.709],[93.481,20.744],[93.405,20.732],[93.39,20.771],[93.321,20.761],[93.311,20.791],[93.278,20.791],[93.244,20.81],[93.247,20.831],[93.209,20.851],[93.176,20.833],[93.16,20.844],[93.145,20.911],[93.134,20.929],[93.141,20.97],[93.122,21.056],[93.13,21.088],[93.047,21.062],[93.006,21.071],[92.984,21.097],[92.926,21.114],[92.865,21.073],[92.849,21.09],[92.813,21.096],[92.784,21.159],[92.784,21.19],[92.738,21.198],[92.711,21.253],[92.679,21.286],[92.636,21.272],[92.598,21.247],[92.572,21.322],[92.558,21.382],[92.509,21.376],[92.477,21.354],[92.427,21.375],[92.424,21.433],[92.381,21.48],[92.343,21.466],[92.337,21.435],[92.31,21.419],[92.269,21.428],[92.251,21.357],[92.199,21.327],[92.217,21.277],[92.22,21.234],[92.173,21.17],[92.2,21.16],[92.198,21.138],[92.224,21.119],[92.257,21.078],[92.278,20.974],[92.275,20.953],[92.313,20.911],[92.393,20.711],[92.381,20.703],[92.449,20.661],[92.512,20.606],[92.528,20.549],[92.569,20.516],[92.625,20.452],[92.65,20.412],[92.699,20.311],[92.731,20.307],[92.733,20.386],[92.748,20.412],[92.721,20.499],[92.732,20.556],[92.694,20.587],[92.707,20.613],[92.745,20.552],[92.735,20.52],[92.749,20.482],[92.797,20.51],[92.803,20.483],[92.828,20.449],[92.837,20.446],[92.842,20.439],[92.841,20.417],[92.858,20.414],[92.837,20.383],[92.865,20.351],[92.872,20.312],[92.841,20.279],[92.788,20.258],[92.76,20.197],[92.83,20.151],[92.867,20.121],[92.896,20.129],[92.921,20.197],[92.977,20.252],[93.013,20.305],[93.021,20.368],[93.018,20.413],[93.052,20.476],[93.077,20.541],[93.098,20.509],[93.116,20.427],[93.107,20.415],[93.08,20.412],[93.091,20.384],[93.07,20.351],[93.035,20.332],[93.032,20.293],[93.01,20.258],[92.997,20.214],[92.992,20.142],[93.016,20.137],[93.061,20.166],[93.084,20.193],[93.151,20.191],[93.204,20.221],[93.241,20.315],[93.293,20.333],[93.327,20.331],[93.328,20.311],[93.342,20.305],[93.333,20.295],[93.342,20.279],[93.36,20.282],[93.412,20.174],[93.421,20.116],[93.409,20.084],[93.382,20.086],[93.42,19.971],[93.445,19.999],[93.476,20.001],[93.504,19.975],[93.519,19.923],[93.538,19.927],[93.543,19.892],[93.561,19.885],[93.632,19.918],[93.681,19.921],[93.718,19.897],[93.785,19.868],[93.798,19.828],[93.785,19.802],[93.779,19.757],[93.732,19.751],[93.712,19.738],[93.711,19.689],[93.727,19.673],[93.763,19.677],[93.72,19.618],[93.772,19.588],[93.79,19.565],[93.925,19.478],[93.917,19.455],[93.99,19.435],[93.976,19.419],[93.945,19.445],[93.916,19.449],[93.853,19.487],[93.831,19.479],[93.81,19.484],[93.749,19.526],[93.744,19.55],[93.669,19.557],[93.644,19.514],[93.651,19.444],[93.685,19.406],[93.725,19.38],[93.741,19.326],[93.769,19.301],[93.796,19.31],[93.84,19.296],[93.879,19.311],[93.912,19.278],[93.817,19.225],[93.784,19.229],[93.73,19.263],[93.725,19.292],[93.634,19.329],[93.636,19.361],[93.584,19.41],[93.546,19.436],[93.514,19.432],[93.475,19.396],[93.471,19.355],[93.53,19.274],[93.599,19.149],[93.638,19.135],[93.661,19.025],[93.682,19.003],[93.719,18.992],[93.727,18.969],[93.764,18.973],[93.833,18.93],[93.864,18.897],[93.897,18.892],[93.927,18.854],[93.959,18.898],[93.987,18.968],[93.96,19.019],[93.955,19.105],[93.977,19.139],[94.035,19.181],[94.028,19.079],[94.062,19.068],[94.066,19.043],[94.03,18.998],[94.043,18.946],[94.027,18.9],[94.025,18.85],[94.062,18.848],[94.071,18.865],[94.089,18.853],[94.102,18.873],[94.139,18.867],[94.15,18.847],[94.139,18.819],[94.188,18.772],[94.188,18.737],[94.144,18.73],[94.218,18.67],[94.237,18.645],[94.257,18.534],[94.247,18.524],[94.316,18.438],[94.336,18.396],[94.332,18.369],[94.382,18.364],[94.39,18.325],[94.364,18.296],[94.318,18.3],[94.32,18.25],[94.412,18.243],[94.416,18.202],[94.442,18.16],[94.444,18.133],[94.479,18.065],[94.48,18.031],[94.439,17.975],[94.481,17.902],[94.49,17.824],[94.48,17.781],[94.515,17.764],[94.541,17.732],[94.528,17.707],[94.574,17.642],[94.579,17.604],[94.557,17.597],[94.537,17.555],[94.553,17.529],[94.559,17.476],[94.582,17.444],[94.663,17.399],[94.672,17.372],[94.697,17.37],[94.705,17.343],[94.729,17.34],[94.739,17.378],[94.756,17.38],[94.764,17.418],[94.79,17.446],[94.806,17.479],[94.804,17.516],[94.79,17.553],[94.788,17.655],[94.802,17.678],[94.833,17.683],[94.844,17.709],[94.871,17.72],[94.871,17.813],[94.887,17.849],[94.873,17.869],[94.882,17.898],[94.847,17.923],[94.817,17.994],[94.84,18.03],[94.871,18.053],[94.881,18.08],[94.852,18.142],[94.893,18.173],[94.902,18.196],[94.871,18.228],[94.886,18.254],[94.884,18.295],[94.853,18.314],[94.823,18.36]]],[[[93.626,18.9],[93.597,18.902],[93.55,18.881],[93.52,18.883],[93.478,18.87],[93.545,18.767],[93.596,18.731],[93.664,18.67],[93.703,18.667],[93.726,18.676],[93.759,18.733],[93.749,18.788],[93.749,18.888],[93.707,18.874],[93.672,18.877],[93.626,18.9]]],[[[93.976,18.83],[93.938,18.822],[93.956,18.78],[93.994,18.787],[93.976,18.83]]],[[[94.112,18.853],[94.092,18.85],[94.073,18.855],[94.062,18.833],[94.12,18.81],[94.135,18.818],[94.14,18.865],[94.112,18.853]]],[[[93.845,19.278],[93.845,19.291],[93.798,19.305],[93.793,19.268],[93.845,19.278]]],[[[93.445,19.746],[93.415,19.724],[93.45,19.699],[93.501,19.681],[93.494,19.713],[93.445,19.746]]],[[[93.578,19.728],[93.578,19.769],[93.547,19.751],[93.533,19.723],[93.511,19.719],[93.522,19.678],[93.578,19.728]]],[[[93.656,19.373],[93.655,19.334],[93.689,19.318],[93.687,19.366],[93.656,19.373]]],[[[93.831,19.484],[93.859,19.505],[93.811,19.526],[93.768,19.524],[93.831,19.484]]],[[[93.646,19.455],[93.623,19.491],[93.596,19.474],[93.63,19.445],[93.646,19.455]]],[[[92.839,20.442],[92.825,20.447],[92.8,20.479],[92.759,20.444],[92.768,20.391],[92.765,20.326],[92.771,20.293],[92.793,20.28],[92.83,20.289],[92.859,20.308],[92.862,20.335],[92.831,20.382],[92.84,20.415],[92.837,20.428],[92.839,20.442]]],[[[93.111,20.423],[93.099,20.464],[93.095,20.509],[93.064,20.482],[93.035,20.42],[93.031,20.358],[93.059,20.358],[93.082,20.376],[93.076,20.413],[93.111,20.423]]],[[[92.794,20.475],[92.795,20.508],[92.752,20.477],[92.759,20.447],[92.794,20.475]]],[[[92.937,20.105],[92.922,20.097],[92.914,20.059],[92.991,19.923],[93.015,19.936],[92.983,19.988],[92.959,20.075],[92.937,20.105]]],[[[92.995,20.123],[92.976,20.074],[93.043,20.01],[93.049,19.957],[93.08,19.919],[93.107,19.869],[93.119,19.894],[93.105,19.961],[93.139,19.999],[93.121,20.044],[93.1,20.065],[93.063,20.126],[92.995,20.123]]],[[[93.113,20.065],[93.126,20.08],[93.094,20.152],[93.068,20.127],[93.089,20.089],[93.113,20.065]]],[[[93.179,20.19],[93.094,20.188],[93.084,20.18],[93.128,20.084],[93.181,20.058],[93.195,20.093],[93.231,20.114],[93.217,20.168],[93.196,20.166],[93.179,20.19]]],[[[92.971,20.175],[92.974,20.221],[92.945,20.202],[92.971,20.175]]],[[[93.288,20.206],[93.284,20.246],[93.264,20.258],[93.212,20.241],[93.206,20.22],[93.177,20.196],[93.198,20.17],[93.222,20.167],[93.238,20.116],[93.197,20.087],[93.208,20.03],[93.265,20.03],[93.338,20.055],[93.35,20.065],[93.311,20.115],[93.301,20.157],[93.303,20.204],[93.288,20.206]]],[[[93.324,20.329],[93.292,20.331],[93.266,20.31],[93.282,20.255],[93.306,20.205],[93.316,20.116],[93.355,20.068],[93.365,20.021],[93.382,20.027],[93.373,20.078],[93.414,20.125],[93.403,20.183],[93.359,20.278],[93.352,20.28],[93.344,20.276],[93.338,20.28],[93.325,20.31],[93.324,20.329]]],[[[93.709,19.753],[93.694,19.79],[93.661,19.739],[93.666,19.717],[93.693,19.705],[93.709,19.753]]],[[[93.709,19.873],[93.668,19.855],[93.64,19.863],[93.629,19.819],[93.589,19.779],[93.598,19.757],[93.596,19.711],[93.613,19.706],[93.625,19.751],[93.641,19.775],[93.682,19.802],[93.671,19.827],[93.695,19.839],[93.709,19.873]]],[[[93.749,19.825],[93.7,19.808],[93.715,19.78],[93.745,19.792],[93.749,19.825]]],[[[93.771,19.859],[93.752,19.83],[93.746,19.79],[93.713,19.777],[93.717,19.756],[93.777,19.767],[93.791,19.842],[93.771,19.859]]],[[[93.564,19.839],[93.545,19.819],[93.576,19.802],[93.594,19.833],[93.564,19.839]]],[[[93.448,19.93],[93.43,19.958],[93.393,19.955],[93.43,19.868],[93.427,19.847],[93.441,19.79],[93.464,19.768],[93.521,19.753],[93.5,19.801],[93.515,19.866],[93.538,19.886],[93.532,19.916],[93.474,19.906],[93.448,19.93]]],[[[93.602,19.848],[93.65,19.885],[93.613,19.901],[93.591,19.873],[93.551,19.869],[93.541,19.847],[93.588,19.839],[93.602,19.848]]],[[[93.712,19.885],[93.675,19.894],[93.675,19.859],[93.712,19.885]]]]},"properties":{"shapeName":"Rakhine","shapeISO":"MM-16","shapeID":"20573499B29373908448635","shapeGroup":"MMR","shapeType":"ADM1"}},
{"type":"Feature","geometry":{"type":"MultiPolygon","coordinates":[[[[98.034,9.834],[98.004,9.827],[98.018,9.79],[98.048,9.788],[98.063,9.804],[98.034,9.834]]],[[[98.676,11.063],[98.653,11.061],[98.637,11.03],[98.653,11.015],[98.684,11.024],[98.676,11.063]]],[[[98.262,11.258],[98.229,11.245],[98.248,11.204],[98.27,11.226],[98.262,11.258]]],[[[98.272,11.338],[98.255,11.304],[98.216,11.289],[98.239,11.26],[98.283,11.319],[98.272,11.338]]],[[[98.146,11.411],[98.106,11.413],[98.124,11.366],[98.146,11.411]]],[[[97.489,11.813],[97.443,11.781],[97.47,11.77],[97.52,11.782],[97.512,11.816],[97.489,11.813]]],[[[98.683,11.946],[98.678,11.979],[98.628,11.993],[98.619,11.968],[98.683,11.946]]],[[[98.247,11.992],[98.229,11.956],[98.262,11.927],[98.276,11.948],[98.247,11.992]]],[[[97.686,11.87],[97.673,11.9],[97.635,11.87],[97.649,11.845],[97.686,11.87]]],[[[98.295,11.804],[98.259,11.792],[98.273,11.764],[98.232,11.682],[98.222,11.628],[98.19,11.537],[98.203,11.511],[98.192,11.453],[98.217,11.459],[98.225,11.485],[98.27,11.48],[98.275,11.596],[98.295,11.701],[98.319,11.723],[98.295,11.773],[98.295,11.804]]],[[[98.532,11.794],[98.516,11.81],[98.449,11.782],[98.382,11.789],[98.366,11.737],[98.382,11.714],[98.369,11.682],[98.376,11.654],[98.409,11.642],[98.41,11.609],[98.425,11.566],[98.453,11.574],[98.484,11.565],[98.525,11.525],[98.521,11.586],[98.546,11.614],[98.535,11.639],[98.546,11.708],[98.547,11.763],[98.532,11.794]]],[[[98.45,12.094],[98.429,12.088],[98.442,12.006],[98.464,11.992],[98.452,11.926],[98.461,11.89],[98.479,11.874],[98.508,11.878],[98.558,11.919],[98.595,11.912],[98.657,11.921],[98.672,11.947],[98.622,11.958],[98.552,11.996],[98.524,11.994],[98.501,12.013],[98.481,12.061],[98.45,12.094]]],[[[98.007,11.859],[97.991,11.828],[98.013,11.808],[98.03,11.754],[98.012,11.741],[98.021,11.682],[98.073,11.685],[98.078,11.724],[98.053,11.726],[98.046,11.797],[98.019,11.804],[98.007,11.859]]],[[[98.268,11.923],[98.251,11.914],[98.253,11.854],[98.273,11.854],[98.294,11.892],[98.268,11.923]]],[[[98.263,10.062],[98.239,10.061],[98.218,10.027],[98.188,10.034],[98.166,9.983],[98.127,9.947],[98.115,9.865],[98.143,9.853],[98.164,9.886],[98.168,9.922],[98.232,9.96],[98.26,9.988],[98.26,10.014],[98.293,10.017],[98.281,10.064],[98.263,10.062]]],[[[98.19,10.189],[98.17,10.142],[98.196,10.12],[98.229,10.133],[98.215,10.169],[98.19,10.189]]],[[[97.904,10.465],[97.896,10.42],[97.914,10.399],[97.941,10.427],[97.943,10.455],[97.904,10.465]]],[[[98.238,10.532],[98.206,10.53],[98.19,10.511],[98.212,10.481],[98.238,10.532]]],[[[98.501,10.883],[98.504,10.83],[98.493,10.792],[98.506,10.775],[98.536,10.783],[98.558,10.812],[98.563,10.855],[98.513,10.889],[98.501,10.883]]],[[[98.182,10.982],[98.174,10.99],[98.124,10.934],[98.083,10.896],[98.093,10.874],[98.147,10.918],[98.21,10.886],[98.21,10.874],[98.253,10.819],[98.24,10.757],[98.237,10.695],[98.273,10.693],[98.286,10.766],[98.281,10.821],[98.27,10.857],[98.244,10.871],[98.219,10.957],[98.182,10.982]]],[[[97.928,10.926],[97.89,10.907],[97.903,10.852],[97.932,10.873],[97.946,10.906],[97.928,10.926]]],[[[98.546,11.021],[98.534,11.076],[98.511,11.026],[98.491,11.021],[98.47,10.991],[98.489,10.953],[98.515,10.978],[98.548,10.983],[98.546,11.021]]],[[[97.793,14.881],[97.82,14.788],[97.817,14.776],[97.838,14.714],[97.865,14.706],[97.898,14.715],[97.874,14.66],[97.902,14.61],[97.907,14.568],[97.954,14.496],[97.957,14.446],[97.969,14.419],[97.968,14.362],[97.996,14.315],[97.996,14.297],[98.056,14.214],[98.076,14.176],[98.099,14.111],[98.056,14.042],[98.075,13.917],[98.099,13.891],[98.088,13.853],[98.089,13.813],[98.07,13.794],[98.068,13.76],[98.089,13.735],[98.097,13.696],[98.143,13.678],[98.153,13.65],[98.125,13.589],[98.13,13.564],[98.159,13.555],[98.161,13.619],[98.185,13.65],[98.188,13.684],[98.171,13.764],[98.181,13.82],[98.215,13.886],[98.215,13.914],[98.201,13.963],[98.229,13.971],[98.246,13.806],[98.232,13.738],[98.245,13.707],[98.277,13.709],[98.281,13.676],[98.341,13.629],[98.374,13.586],[98.367,13.561],[98.425,13.472],[98.429,13.436],[98.448,13.385],[98.465,13.383],[98.469,13.3],[98.497,13.293],[98.492,13.247],[98.53,13.232],[98.543,13.202],[98.577,13.189],[98.57,13.13],[98.59,13.086],[98.599,13.005],[98.59,12.931],[98.624,12.9],[98.636,12.854],[98.637,12.813],[98.677,12.753],[98.648,12.729],[98.685,12.716],[98.649,12.657],[98.654,12.636],[98.639,12.592],[98.617,12.561],[98.631,12.536],[98.677,12.528],[98.648,12.504],[98.602,12.482],[98.594,12.43],[98.625,12.392],[98.707,12.359],[98.693,12.347],[98.637,12.386],[98.559,12.416],[98.537,12.347],[98.555,12.33],[98.638,12.319],[98.637,12.306],[98.563,12.3],[98.526,12.262],[98.54,12.218],[98.599,12.194],[98.616,12.199],[98.631,12.235],[98.689,12.242],[98.705,12.204],[98.675,12.182],[98.67,12.161],[98.636,12.15],[98.618,12.124],[98.638,12.07],[98.686,12.027],[98.712,11.968],[98.692,11.963],[98.688,11.943],[98.668,11.921],[98.593,11.903],[98.556,11.908],[98.551,11.871],[98.612,11.876],[98.649,11.864],[98.613,11.812],[98.617,11.788],[98.59,11.759],[98.604,11.72],[98.688,11.677],[98.712,11.709],[98.701,11.723],[98.777,11.789],[98.789,11.731],[98.85,11.723],[98.838,11.682],[98.739,11.675],[98.729,11.576],[98.718,11.538],[98.755,11.528],[98.752,11.494],[98.77,11.45],[98.719,11.459],[98.694,11.411],[98.716,11.389],[98.723,11.319],[98.758,11.276],[98.741,11.23],[98.739,11.188],[98.7,11.139],[98.658,11.126],[98.711,11.06],[98.68,11.002],[98.716,10.99],[98.713,10.934],[98.667,10.915],[98.628,10.92],[98.616,10.896],[98.577,10.876],[98.595,10.856],[98.628,10.868],[98.637,10.847],[98.598,10.824],[98.582,10.774],[98.565,10.75],[98.539,10.749],[98.536,10.724],[98.492,10.734],[98.47,10.722],[98.454,10.657],[98.454,10.621],[98.498,10.526],[98.485,10.51],[98.492,10.451],[98.516,10.426],[98.521,10.388],[98.537,10.357],[98.519,10.304],[98.516,10.242],[98.481,10.201],[98.515,10.167],[98.512,10.122],[98.525,10.078],[98.517,10.056],[98.532,10],[98.564,9.995],[98.607,10.072],[98.62,10.12],[98.639,10.138],[98.649,10.179],[98.694,10.211],[98.686,10.232],[98.714,10.268],[98.753,10.39],[98.785,10.444],[98.809,10.467],[98.819,10.501],[98.819,10.547],[98.805,10.563],[98.801,10.604],[98.775,10.615],[98.785,10.648],[98.781,10.677],[98.841,10.751],[98.878,10.787],[98.92,10.813],[98.964,10.817],[99.012,10.858],[99.001,10.891],[99.003,10.935],[99.021,10.967],[99.083,10.953],[99.102,11.01],[99.155,11.032],[99.18,11.06],[99.178,11.08],[99.229,11.114],[99.225,11.141],[99.254,11.166],[99.269,11.225],[99.325,11.282],[99.309,11.302],[99.364,11.368],[99.403,11.389],[99.398,11.464],[99.447,11.493],[99.475,11.537],[99.458,11.581],[99.475,11.624],[99.516,11.635],[99.533,11.619],[99.569,11.631],[99.587,11.66],[99.598,11.702],[99.639,11.733],[99.652,11.811],[99.628,11.82],[99.627,11.849],[99.584,11.879],[99.594,11.989],[99.579,12.006],[99.54,12.014],[99.537,12.067],[99.557,12.094],[99.564,12.151],[99.517,12.147],[99.474,12.131],[99.5,12.192],[99.472,12.239],[99.484,12.277],[99.466,12.283],[99.435,12.362],[99.447,12.404],[99.403,12.462],[99.42,12.503],[99.436,12.587],[99.414,12.618],[99.38,12.616],[99.333,12.668],[99.295,12.678],[99.291,12.715],[99.235,12.739],[99.231,12.813],[99.185,12.86],[99.182,12.914],[99.162,12.927],[99.196,12.958],[99.167,13.018],[99.121,13.043],[99.1,13.072],[99.129,13.101],[99.131,13.202],[99.159,13.208],[99.194,13.188],[99.209,13.201],[99.211,13.261],[99.188,13.291],[99.207,13.341],[99.199,13.371],[99.209,13.41],[99.197,13.449],[99.208,13.468],[99.185,13.508],[99.193,13.541],[99.179,13.583],[99.166,13.681],[99.168,13.728],[99.121,13.772],[99.109,13.892],[99.079,13.895],[99.061,13.927],[99.021,13.945],[99.008,14],[98.97,14.05],[98.967,14.089],[98.923,14.109],[98.9,14.107],[98.869,14.147],[98.78,14.199],[98.734,14.238],[98.714,14.277],[98.685,14.273],[98.605,14.319],[98.557,14.402],[98.549,14.433],[98.525,14.453],[98.498,14.509],[98.494,14.535],[98.462,14.531],[98.46,14.572],[98.436,14.614],[98.38,14.653],[98.362,14.69],[98.327,14.707],[98.306,14.733],[98.29,14.774],[98.255,14.813],[98.257,14.863],[98.231,14.889],[98.251,14.917],[98.234,14.967],[98.208,14.982],[98.121,14.995],[98.1,14.992],[98.043,15.049],[98.04,15.083],[98.018,15.105],[97.959,15.084],[97.95,15.059],[97.884,15.082],[97.864,14.989],[97.868,14.937],[97.835,14.928],[97.839,14.885],[97.793,14.881]]],[[[98.255,12.565],[98.228,12.544],[98.221,12.516],[98.235,12.491],[98.267,12.49],[98.291,12.51],[98.255,12.565]]],[[[97.853,12.592],[97.828,12.592],[97.838,12.554],[97.857,12.548],[97.875,12.575],[97.853,12.592]]],[[[97.858,12.817],[97.831,12.798],[97.837,12.778],[97.882,12.774],[97.858,12.817]]],[[[98.547,13.197],[98.538,13.165],[98.561,13.149],[98.575,13.184],[98.547,13.197]]],[[[98.511,13.24],[98.488,13.219],[98.49,13.176],[98.521,13.176],[98.537,13.207],[98.511,13.24]]],[[[98.256,13.216],[98.236,13.215],[98.243,13.176],[98.236,13.147],[98.248,13.125],[98.252,13.077],[98.285,13.048],[98.333,13.077],[98.288,13.114],[98.256,13.216]]],[[[98.204,13.758],[98.227,13.848],[98.188,13.794],[98.204,13.758]]],[[[98.649,12.187],[98.686,12.21],[98.691,12.232],[98.645,12.221],[98.649,12.187]]],[[[98.475,12.333],[98.496,12.368],[98.471,12.397],[98.424,12.334],[98.475,12.333]]],[[[98.099,12.294],[98.081,12.301],[98.06,12.276],[98.042,12.22],[98.067,12.197],[98.082,12.163],[98.127,12.162],[98.147,12.195],[98.122,12.206],[98.132,12.236],[98.126,12.291],[98.099,12.294]]],[[[98.095,12.435],[98.045,12.38],[98.013,12.36],[97.985,12.39],[97.952,12.384],[97.936,12.341],[97.968,12.323],[97.995,12.292],[98.038,12.316],[98.107,12.373],[98.115,12.404],[98.095,12.435]]],[[[98.499,12.517],[98.477,12.494],[98.478,12.468],[98.465,12.414],[98.489,12.388],[98.514,12.422],[98.51,12.45],[98.518,12.498],[98.499,12.517]]],[[[98.319,12.672],[98.296,12.645],[98.299,12.585],[98.315,12.499],[98.333,12.456],[98.309,12.374],[98.306,12.33],[98.34,12.312],[98.363,12.321],[98.4,12.368],[98.433,12.436],[98.464,12.467],[98.467,12.55],[98.481,12.575],[98.458,12.608],[98.44,12.607],[98.442,12.561],[98.417,12.555],[98.39,12.579],[98.392,12.613],[98.409,12.627],[98.379,12.663],[98.319,12.672]]]]},"properties":{"shapeName":"Tanitharyi","shapeISO":"MM-05","shapeID":"20573499B47967485654923","shapeGroup":"MMR","shapeType":"ADM1"}},
{"type":"Feature","geometry":{"type":"Polygon","coordinates":[[[95.736,17.478],[95.785,17.472],[95.778,17.502],[95.8,17.512],[95.815,17.544],[95.848,17.571],[95.892,17.574],[95.906,17.633],[95.941,17.639],[95.948,17.667],[95.977,17.686],[96.006,17.728],[96.016,17.762],[96.042,17.788],[96.08,17.786],[96.098,17.741],[96.081,17.706],[96.123,17.652],[96.164,17.586],[96.189,17.533],[96.205,17.52],[96.204,17.487],[96.26,17.47],[96.281,17.439],[96.284,17.4],[96.298,17.361],[96.302,17.291],[96.316,17.235],[96.297,17.211],[96.333,17.169],[96.366,17.149],[96.391,17.117],[96.399,17.043],[96.376,17.01],[96.406,16.98],[96.477,16.965],[96.517,16.994],[96.597,16.981],[96.659,16.996],[96.691,16.971],[96.718,16.965],[96.722,16.939],[96.756,16.94],[96.779,16.909],[96.798,16.85],[96.837,16.822],[96.852,16.834],[96.836,16.876],[96.873,16.912],[96.893,16.988],[96.924,17.059],[96.928,17.128],[96.964,17.144],[96.924,17.166],[96.898,17.191],[96.892,17.213],[96.933,17.282],[96.879,17.302],[96.88,17.34],[96.896,17.379],[96.874,17.436],[96.879,17.494],[96.868,17.545],[96.875,17.599],[96.948,17.624],[96.97,17.607],[96.994,17.611],[97.019,17.57],[97.05,17.565],[97.091,17.52],[97.099,17.482],[97.128,17.488],[97.142,17.511],[97.172,17.511],[97.219,17.543],[97.217,17.549],[97.212,17.554],[97.197,17.557],[97.205,17.626],[97.171,17.665],[97.178,17.678],[97.156,17.725],[97.166,17.757],[97.193,17.787],[97.185,17.833],[97.178,17.838],[97.163,17.874],[97.116,17.947],[97.118,17.99],[97.173,18.074],[97.194,18.156],[97.125,18.21],[97.14,18.25],[97.118,18.309],[97.085,18.321],[97.077,18.291],[97.048,18.306],[97.047,18.345],[97.033,18.374],[96.99,18.376],[96.982,18.406],[96.956,18.431],[96.976,18.473],[96.983,18.552],[96.973,18.601],[96.957,18.608],[96.937,18.65],[96.862,18.636],[96.815,18.599],[96.781,18.602],[96.728,18.631],[96.695,18.599],[96.65,18.647],[96.627,18.695],[96.603,18.709],[96.58,18.753],[96.573,18.785],[96.636,18.792],[96.629,18.831],[96.595,18.87],[96.612,18.912],[96.634,18.902],[96.675,18.924],[96.636,18.95],[96.584,18.937],[96.572,19.038],[96.51,19.09],[96.508,19.148],[96.554,19.174],[96.497,19.207],[96.479,19.268],[96.461,19.303],[96.461,19.353],[96.428,19.38],[96.408,19.411],[96.435,19.438],[96.392,19.474],[96.269,19.483],[96.169,19.487],[96.161,19.453],[96.137,19.443],[96.129,19.417],[96.094,19.424],[96.054,19.463],[96.037,19.453],[95.973,19.476],[95.909,19.474],[95.895,19.438],[95.872,19.437],[95.831,19.456],[95.795,19.46],[95.814,19.433],[95.814,19.385],[95.855,19.324],[95.858,19.259],[95.809,19.156],[95.729,19.19],[95.69,19.184],[95.613,19.154],[95.589,19.172],[95.551,19.165],[95.508,19.185],[95.474,19.167],[95.458,19.182],[95.422,19.177],[95.369,19.096],[95.316,19.099],[95.273,19.068],[95.284,19.002],[95.223,18.983],[95.214,18.964],[95.164,18.956],[95.151,18.932],[95.154,18.885],[95.134,18.866],[95.082,18.864],[95.059,18.832],[95.025,18.867],[95.019,18.896],[94.989,18.924],[94.944,18.94],[94.906,18.937],[94.834,18.981],[94.732,18.96],[94.697,18.96],[94.702,18.922],[94.744,18.9],[94.762,18.859],[94.751,18.829],[94.686,18.803],[94.703,18.757],[94.732,18.719],[94.747,18.657],[94.702,18.655],[94.69,18.626],[94.727,18.577],[94.766,18.564],[94.748,18.541],[94.754,18.509],[94.734,18.468],[94.758,18.457],[94.798,18.371],[94.823,18.36],[94.865,18.409],[94.926,18.426],[94.94,18.453],[94.969,18.415],[94.99,18.413],[95.007,18.382],[95.039,18.369],[95.078,18.379],[95.097,18.428],[95.112,18.436],[95.1,18.485],[95.117,18.51],[95.191,18.473],[95.194,18.416],[95.262,18.374],[95.258,18.341],[95.335,18.286],[95.347,18.255],[95.412,18.223],[95.417,18.202],[95.396,18.162],[95.452,18.032],[95.466,17.989],[95.457,17.912],[95.487,17.871],[95.475,17.83],[95.486,17.781],[95.432,17.74],[95.432,17.721],[95.504,17.649],[95.549,17.641],[95.582,17.61],[95.617,17.627],[95.655,17.611],[95.678,17.587],[95.677,17.551],[95.736,17.478]]]},"properties":{"shapeName":"Bago","shapeISO":"MM-02","shapeID":"20573499B19694912925518","shapeGroup":"MMR","shapeType":"ADM1"}},
{"type":"Feature","geometry":{"type":"Polygon","coordinates":[[[95.829,16.496],[95.833,16.467],[95.859,16.468],[95.878,16.42],[95.92,16.409],[95.979,16.415],[96.058,16.367],[96.107,16.326],[96.132,16.323],[96.206,16.358],[96.25,16.367],[96.288,16.387],[96.324,16.435],[96.324,16.461],[96.284,16.486],[96.259,16.522],[96.233,16.595],[96.24,16.656],[96.207,16.681],[96.191,16.736],[96.216,16.772],[96.225,16.709],[96.238,16.678],[96.262,16.653],[96.26,16.608],[96.287,16.56],[96.351,16.525],[96.392,16.485],[96.43,16.477],[96.486,16.483],[96.553,16.507],[96.616,16.538],[96.653,16.563],[96.724,16.653],[96.72,16.681],[96.731,16.725],[96.771,16.773],[96.808,16.756],[96.837,16.822],[96.798,16.85],[96.779,16.909],[96.756,16.94],[96.722,16.939],[96.718,16.965],[96.691,16.971],[96.659,16.996],[96.597,16.981],[96.517,16.994],[96.477,16.965],[96.406,16.98],[96.376,17.01],[96.399,17.043],[96.391,17.117],[96.366,17.149],[96.333,17.169],[96.297,17.211],[96.316,17.235],[96.302,17.291],[96.298,17.361],[96.284,17.4],[96.281,17.439],[96.26,17.47],[96.204,17.487],[96.205,17.52],[96.189,17.533],[96.164,17.586],[96.123,17.652],[96.081,17.706],[96.098,17.741],[96.08,17.786],[96.042,17.788],[96.016,17.762],[96.006,17.728],[95.977,17.686],[95.948,17.667],[95.941,17.639],[95.906,17.633],[95.892,17.574],[95.848,17.571],[95.815,17.544],[95.8,17.512],[95.778,17.502],[95.785,17.472],[95.736,17.478],[95.69,17.442],[95.69,17.408],[95.675,17.395],[95.626,17.387],[95.618,17.348],[95.643,17.344],[95.662,17.363],[95.687,17.347],[95.708,17.299],[95.705,17.258],[95.69,17.232],[95.71,17.202],[95.747,17.201],[95.784,17.171],[95.784,17.151],[95.81,17.111],[95.803,17.085],[95.836,17.063],[95.821,17.04],[95.866,17.003],[95.867,16.98],[95.839,16.928],[95.849,16.889],[95.837,16.87],[95.866,16.824],[95.876,16.756],[95.873,16.725],[95.843,16.713],[95.825,16.674],[95.836,16.644],[95.824,16.615],[95.84,16.57],[95.876,16.568],[95.881,16.539],[95.829,16.496]]]},"properties":{"shapeName":"Yangon","shapeISO":"MM-06","shapeID":"20573499B24734669936209","shapeGroup":"MMR","shapeType":"ADM1"}},
{"type":"Feature","geometry":{"type":"Polygon","coordinates":[[[96.393,23.57],[96.358,23.549],[96.339,23.513],[96.31,23.498],[96.298,23.446],[96.249,23.4],[96.228,23.368],[96.218,23.332],[96.193,23.35],[96.165,23.329],[96.198,23.3],[96.183,23.273],[96.188,23.229],[96.171,23.176],[96.152,23.16],[96.153,23.121],[96.194,23.091],[96.194,23.047],[96.237,23.014],[96.295,23.004],[96.39,23.014],[96.515,23.053],[96.542,23.026],[96.633,22.977],[96.68,22.985],[96.713,22.96],[96.704,22.933],[96.672,22.892],[96.665,22.85],[96.609,22.816],[96.535,22.828],[96.514,22.806],[96.45,22.786],[96.418,22.801],[96.382,22.802],[96.358,22.779],[96.286,22.784],[96.273,22.793],[96.204,22.738],[96.237,22.682],[96.24,22.639],[96.279,22.585],[96.298,22.573],[96.29,22.529],[96.331,22.504],[96.334,22.467],[96.32,22.454],[96.324,22.375],[96.338,22.367],[96.388,22.371],[96.409,22.364],[96.422,22.332],[96.454,22.299],[96.481,22.229],[96.484,22.153],[96.548,22.14],[96.564,22.114],[96.639,22.111],[96.656,22.089],[96.716,22.09],[96.738,22.082],[96.753,22.051],[96.755,22.007],[96.817,21.932],[96.829,21.896],[96.859,21.86],[96.876,21.823],[96.896,21.743],[96.849,21.741],[96.821,21.766],[96.766,21.716],[96.738,21.705],[96.722,21.724],[96.683,21.711],[96.634,21.645],[96.593,21.616],[96.581,21.595],[96.378,21.545],[96.333,21.547],[96.321,21.535],[96.341,21.489],[96.287,21.463],[96.296,21.437],[96.296,21.382],[96.324,21.309],[96.321,21.29],[96.346,21.229],[96.377,21.176],[96.357,21.161],[96.331,21.168],[96.266,21.168],[96.219,21.134],[96.23,21.089],[96.211,21.065],[96.217,21.009],[96.238,21.004],[96.272,20.967],[96.298,20.968],[96.343,20.943],[96.389,20.929],[96.428,20.943],[96.434,20.918],[96.468,20.903],[96.507,20.921],[96.523,20.887],[96.55,20.893],[96.574,20.871],[96.564,20.783],[96.512,20.784],[96.479,20.769],[96.464,20.744],[96.453,20.654],[96.484,20.609],[96.541,20.597],[96.544,20.512],[96.489,20.5],[96.464,20.451],[96.475,20.37],[96.5,20.338],[96.496,20.315],[96.516,20.293],[96.547,20.222],[96.489,20.18],[96.486,20.163],[96.441,20.136],[96.476,20.07],[96.443,20.052],[96.428,20.02],[96.403,20.031],[96.363,20.013],[96.394,19.963],[96.442,19.915],[96.444,19.865],[96.454,19.85],[96.521,19.858],[96.551,19.833],[96.561,19.791],[96.597,19.756],[96.607,19.732],[96.634,19.725],[96.657,19.69],[96.644,19.675],[96.594,19.656],[96.549,19.617],[96.559,19.587],[96.597,19.576],[96.648,19.577],[96.675,19.519],[96.668,19.509],[96.698,19.451],[96.765,19.432],[96.801,19.404],[96.831,19.354],[96.834,19.333],[96.853,19.312],[96.886,19.338],[96.875,19.355],[96.922,19.402],[96.966,19.427],[96.936,19.461],[96.873,19.508],[96.906,19.534],[96.898,19.556],[96.945,19.586],[96.954,19.614],[97.017,19.654],[97.015,19.691],[97.05,19.692],[97.094,19.715],[97.128,19.715],[97.116,19.751],[97.152,19.781],[97.134,19.799],[97.147,19.833],[97.141,19.903],[97.155,19.967],[97.169,19.997],[97.209,19.989],[97.227,19.902],[97.266,19.891],[97.315,19.901],[97.351,19.947],[97.385,19.956],[97.4,19.918],[97.432,19.903],[97.443,19.88],[97.517,19.897],[97.547,19.834],[97.579,19.814],[97.562,19.764],[97.562,19.732],[97.626,19.675],[97.676,19.662],[97.736,19.656],[97.754,19.672],[97.796,19.647],[97.831,19.656],[97.859,19.632],[97.849,19.609],[97.863,19.575],[97.894,19.572],[97.973,19.601],[97.975,19.631],[98.025,19.638],[98.033,19.674],[98.027,19.715],[98.048,19.812],[98.084,19.809],[98.101,19.772],[98.134,19.787],[98.168,19.77],[98.192,19.739],[98.228,19.728],[98.248,19.676],[98.32,19.696],[98.374,19.694],[98.392,19.705],[98.44,19.686],[98.518,19.714],[98.555,19.681],[98.591,19.713],[98.612,19.708],[98.665,19.746],[98.715,19.765],[98.743,19.752],[98.783,19.753],[98.798,19.776],[98.846,19.81],[98.903,19.763],[98.932,19.764],[99.015,19.795],[99.036,19.865],[99.024,19.921],[99.044,19.949],[99.032,19.976],[99.055,20.003],[99.044,20.036],[99.079,20.101],[99.107,20.097],[99.155,20.13],[99.231,20.126],[99.329,20.064],[99.377,20.09],[99.43,20.09],[99.482,20.109],[99.513,20.152],[99.536,20.157],[99.565,20.207],[99.523,20.233],[99.509,20.314],[99.492,20.343],[99.457,20.363],[99.458,20.392],[99.5,20.383],[99.513,20.365],[99.557,20.358],[99.612,20.331],[99.645,20.344],[99.682,20.317],[99.711,20.325],[99.731,20.351],[99.755,20.34],[99.808,20.336],[99.84,20.374],[99.84,20.401],[99.868,20.443],[99.922,20.448],[99.959,20.466],[99.989,20.433],[100.036,20.399],[100.057,20.4],[100.088,20.373],[100.121,20.404],[100.118,20.441],[100.138,20.516],[100.187,20.661],[100.25,20.746],[100.286,20.775],[100.328,20.786],[100.364,20.825],[100.422,20.832],[100.495,20.816],[100.567,20.822],[100.598,20.835],[100.648,20.88],[100.639,20.898],[100.525,20.873],[100.509,20.889],[100.526,20.962],[100.55,20.985],[100.546,21.023],[100.593,21.029],[100.636,21.062],[100.642,21.096],[100.673,21.131],[100.698,21.179],[100.7,21.218],[100.723,21.31],[100.733,21.315],[100.809,21.293],[100.847,21.305],[100.884,21.348],[100.92,21.357],[100.951,21.38],[101,21.386],[101.062,21.457],[101.088,21.459],[101.126,21.502],[101.164,21.528],[101.139,21.572],[101.168,21.592],[101.151,21.672],[101.116,21.693],[101.119,21.711],[101.108,21.774],[101.086,21.776],[101.029,21.727],[100.974,21.7],[100.939,21.699],[100.909,21.683],[100.883,21.69],[100.842,21.635],[100.813,21.621],[100.791,21.571],[100.752,21.553],[100.723,21.513],[100.7,21.515],[100.669,21.48],[100.651,21.484],[100.574,21.451],[100.518,21.472],[100.486,21.456],[100.459,21.486],[100.432,21.541],[100.391,21.522],[100.351,21.531],[100.33,21.504],[100.291,21.48],[100.247,21.466],[100.213,21.504],[100.179,21.517],[100.169,21.485],[100.121,21.52],[100.121,21.571],[100.11,21.601],[100.153,21.65],[100.158,21.68],[100.116,21.706],[100.053,21.679],[99.991,21.704],[99.943,21.823],[99.946,21.865],[99.962,21.879],[99.996,21.974],[99.961,22.026],[99.966,22.046],[99.937,22.061],[99.879,22.069],[99.862,22.059],[99.863,22.027],[99.758,22.071],[99.719,22.061],[99.668,22.077],[99.65,22.095],[99.615,22.096],[99.598,22.114],[99.573,22.101],[99.526,22.097],[99.474,22.135],[99.433,22.105],[99.394,22.098],[99.364,22.107],[99.326,22.095],[99.288,22.112],[99.274,22.1],[99.209,22.125],[99.18,22.146],[99.177,22.193],[99.234,22.249],[99.233,22.297],[99.276,22.361],[99.257,22.399],[99.299,22.417],[99.37,22.489],[99.36,22.54],[99.384,22.575],[99.339,22.711],[99.317,22.731],[99.326,22.753],[99.384,22.765],[99.391,22.808],[99.438,22.846],[99.455,22.849],[99.436,22.912],[99.442,22.942],[99.493,22.912],[99.525,22.902],[99.56,22.908],[99.566,22.932],[99.521,22.994],[99.518,23.033],[99.533,23.052],[99.51,23.084],[99.437,23.084],[99.385,23.101],[99.348,23.136],[99.305,23.102],[99.266,23.101],[99.26,23.082],[99.223,23.09],[99.2,23.113],[99.116,23.104],[99.106,23.092],[99.048,23.123],[99.052,23.165],[99.003,23.163],[98.924,23.188],[98.886,23.19],[98.93,23.27],[98.919,23.418],[98.875,23.486],[98.838,23.478],[98.819,23.488],[98.803,23.539],[98.841,23.576],[98.877,23.589],[98.889,23.618],[98.856,23.632],[98.83,23.726],[98.808,23.769],[98.686,23.802],[98.705,23.843],[98.684,23.905],[98.726,23.97],[98.77,23.999],[98.773,24.027],[98.806,24.025],[98.819,24.045],[98.864,24.066],[98.899,24.113],[98.884,24.153],[98.838,24.13],[98.82,24.136],[98.759,24.128],[98.717,24.131],[98.679,24.102],[98.638,24.104],[98.612,24.087],[98.554,24.113],[98.546,24.131],[98.441,24.128],[98.374,24.116],[98.344,24.101],[98.295,24.103],[98.22,24.116],[98.198,24.102],[98.12,24.095],[98.041,24.074],[97.981,24.036],[97.897,24.015],[97.84,23.965],[97.794,23.957],[97.767,23.932],[97.765,23.909],[97.73,23.899],[97.707,23.865],[97.638,23.863],[97.61,23.828],[97.572,23.815],[97.547,23.823],[97.475,23.819],[97.453,23.799],[97.467,23.781],[97.409,23.739],[97.373,23.745],[97.304,23.704],[97.272,23.712],[97.179,23.67],[97.152,23.676],[97.121,23.665],[97.103,23.642],[97.015,23.644],[97.004,23.696],[96.975,23.716],[96.87,23.716],[96.856,23.732],[96.784,23.743],[96.791,23.783],[96.822,23.777],[96.855,23.787],[96.886,23.847],[96.869,23.885],[96.843,23.889],[96.841,23.976],[96.859,24.004],[96.846,24.024],[96.789,24.015],[96.755,23.994],[96.679,24],[96.703,24.029],[96.695,24.106],[96.663,24.158],[96.627,24.146],[96.558,24.155],[96.519,24.101],[96.502,24.111],[96.457,24.101],[96.39,24.028],[96.433,23.996],[96.469,24.017],[96.507,24.006],[96.517,23.97],[96.509,23.951],[96.528,23.909],[96.526,23.887],[96.557,23.856],[96.559,23.823],[96.531,23.805],[96.515,23.752],[96.438,23.695],[96.437,23.635],[96.397,23.587],[96.393,23.57]]]},"properties":{"shapeName":"Shan","shapeISO":"MM-17","shapeID":"20573499B82952573339616","shapeGroup":"MMR","shapeType":"ADM1"}}
]}